{"type":"FeatureCollection","metadata":{"generated":1619310181000,"url":"https://earthquake.usgs.gov/earthquakes/feed/v1.0/summary/2.5_day.geojson","title":"USGS Magnitude 2.5+ Earthquakes, Past Day","status":200,"api":"1.10.3","count":39},"features":[{"type":"Feature","properties":{"mag":3.35,"place":"5 km ESE of La Parguera, Puerto Rico","time":1619305045510,"updated":1619308282657,"tz":null,"url":"https://earthquake.usgs.gov/earthquakes/eventpage/pr2021114011","detail":"https://earthquake.usgs.gov/earthquakes/feed/v1.0/detail/pr2021114011.geojson","felt":3,"cdi":3.1,"mmi":null,"alert":null,"status":"reviewed","tsunami":0,"sig":174,"net":"pr","code":"2021114011","ids":",us6000e4gz,pr2021114011,","sources":",us,pr,","types":",dyfi,origin,phase-data,","nst":24,"dmin":0.0461,"rms":0.09,"gap":213,"magType":"md","type":"earthquake","title":"M 3.4 - 5 km ESE of La Parguera, Puerto Rico"},"geometry":{"type":"Point","coordinates":[-67.0026,17.9496,9]},"id":"pr2021114011"},
{"type":"Feature","properties":{"mag":2.5,"place":"73 km SW of Kaktovik, Alaska","time":1619304655691,"updated":1619305617316,"tz":null,"url":"https://earthquake.usgs.gov/earthquakes/eventpage/ak02158wnxp6","detail":"https://earthquake.usgs.gov/earthquakes/feed/v1.0/detail/ak02158wnxp6.geojson","felt":null,"cdi":null,"mmi":null,"alert":null,"status":"automatic","tsunami":0,"sig":96,"net":"ak","code":"02158wnxp6","ids":",ak02158wnxp6,","sources":",ak,","types":",origin,","nst":null,"dmin":null,"rms":0.97,"gap":null,"magType":"ml","type":"earthquake","title":"M 2.5 - 73 km SW of Kaktovik, Alaska"},"geometry":{"type":"Point","coordinates":[-145.0098,69.6809,0]},"id":"ak02158wnxp6"},
{"type":"Feature","properties":{"mag":2.54,"place":"5 km S of Maria Antonia, Puerto Rico","time":1619302680630,"updated":1619304240328,"tz":null,"url":"https://earthquake.usgs.gov/earthquakes/eventpage/pr2021114010","detail":"https://earthquake.usgs.gov/earthquakes/feed/v1.0/detail/pr2021114010.geojson","felt":null,"cdi":null,"mmi":null,"alert":null,"status":"reviewed","tsunami":0,"sig":99,"net":"pr","code":"2021114010","ids":",pr2021114010,","sources":",pr,","types":",origin,phase-data,","nst":18,"dmin":0.1674,"rms":0.14,"gap":208,"magType":"md","type":"earthquake","title":"M 2.5 - 5 km S of Maria Antonia, Puerto Rico"},"geometry":{"type":"Point","coordinates":[-66.8813,17.9308,13]},"id":"pr2021114010"},
{"type":"Feature","properties":{"mag":4.5,"place":"73 km SW of Brisas Barra de Suchiate, Mexico","time":1619299062616,"updated":1619301862040,"tz":null,"url":"https://earthquake.usgs.gov/earthquakes/eventpage/us6000e4ga","detail":"https://earthquake.usgs.gov/earthquakes/feed/v1.0/detail/us6000e4ga.geojson","felt":null,"cdi":null,"mmi":null,"alert":null,"status":"reviewed","tsunami":0,"sig":312,"net":"us","code":"6000e4ga","ids":",us6000e4ga,","sources":",us,","types":",origin,phase-data,","nst":null,"dmin":1.073,"rms":0.69,"gap":167,"magType":"mb","type":"earthquake","title":"M 4.5 - 73 km SW of Brisas Barra de Suchiate, Mexico"},"geometry":{"type":"Point","coordinates":[-92.6933,14.0585,38]},"id":"us6000e4ga"},
{"type":"Feature","properties":{"mag":2.53,"place":"8km NW of Avenal, CA","time":1619299013310,"updated":1619307546995,"tz":null,"url":"https://earthquake.usgs.gov/earthquakes/eventpage/nc73554015","detail":"https://earthquake.usgs.gov/earthquakes/feed/v1.0/detail/nc73554015.geojson","felt":3,"cdi":2,"mmi":null,"alert":null,"status":"automatic","tsunami":0,"sig":99,"net":"nc","code":"73554015","ids":",nc73554015,","sources":",nc,","types":",dyfi,focal-mechanism,nearby-cities,origin,phase-data,scitech-link,","nst":35,"dmin":0.1496,"rms":0.27,"gap":137,"magType":"md","type":"earthquake","title":"M 2.5 - 8km NW of Avenal, CA"},"geometry":{"type":"Point","coordinates":[-120.1926651,36.0589981,10.46]},"id":"nc73554015"},
{"type":"Feature","properties":{"mag":4.7,"place":"169 km NNW of Amahai, Indonesia","time":1619295600050,"updated":1619300523040,"tz":null,"url":"https://earthquake.usgs.gov/earthquakes/eventpage/us6000e4g1","detail":"https://earthquake.usgs.gov/earthquakes/feed/v1.0/detail/us6000e4g1.geojson","felt":null,"cdi":null,"mmi":null,"alert":null,"status":"reviewed","tsunami":0,"sig":340,"net":"us","code":"6000e4g1","ids":",us6000e4g1,","sources":",us,","types":",origin,phase-data,","nst":null,"dmin":2.859,"rms":0.77,"gap":75,"magType":"mb","type":"earthquake","title":"M 4.7 - 169 km NNW of Amahai, Indonesia"},"geometry":{"type":"Point","coordinates":[128.2362,-1.9708,10]},"id":"us6000e4g1"},
{"type":"Feature","properties":{"mag":4.4,"place":"132 km WNW of Panguna, Papua New Guinea","time":1619292907832,"updated":1619299430040,"tz":null,"url":"https://earthquake.usgs.gov/earthquakes/eventpage/us6000e4fy","detail":"https://earthquake.usgs.gov/earthquakes/feed/v1.0/detail/us6000e4fy.geojson","felt":null,"cdi":null,"mmi":null,"alert":null,"status":"reviewed","tsunami":0,"sig":298,"net":"us","code":"6000e4fy","ids":",us6000e4fy,","sources":",us,","types":",origin,phase-data,","nst":null,"dmin":2.73,"rms":0.36,"gap":99,"magType":"mb","type":"earthquake","title":"M 4.4 - 132 km WNW of Panguna, Papua New Guinea"},"geometry":{"type":"Point","coordinates":[154.4634,-5.6857,87.42]},"id":"us6000e4fy"},
{"type":"Feature","properties":{"mag":4.3,"place":"89 km WSW of Copiapó, Chile","time":1619288059192,"updated":1619296814821,"tz":null,"url":"https://earthquake.usgs.gov/earthquakes/eventpage/us6000e4fb","detail":"https://earthquake.usgs.gov/earthquakes/feed/v1.0/detail/us6000e4fb.geojson","felt":1,"cdi":1,"mmi":null,"alert":null,"status":"reviewed","tsunami":0,"sig":285,"net":"us","code":"6000e4fb","ids":",us6000e4fb,","sources":",us,","types":",dyfi,moment-tensor,origin,phase-data,","nst":null,"dmin":0.683,"rms":1.11,"gap":147,"magType":"mwr","type":"earthquake","title":"M 4.3 - 89 km WSW of Copiapó, Chile"},"geometry":{"type":"Point","coordinates":[-71.2211,-27.5312,34.97]},"id":"us6000e4fb"},
{"type":"Feature","properties":{"mag":2.81,"place":"9km SSE of San Juan Bautista, CA","time":1619287331720,"updated":1619297480786,"tz":null,"url":"https://earthquake.usgs.gov/earthquakes/eventpage/nc73553930","detail":"https://earthquake.usgs.gov/earthquakes/feed/v1.0/detail/nc73553930.geojson","felt":20,"cdi":3.4,"mmi":null,"alert":null,"status":"automatic","tsunami":0,"sig":128,"net":"nc","code":"73553930","ids":",nc73553930,us6000e4f5,","sources":",nc,us,","types":",dyfi,focal-mechanism,nearby-cities,origin,phase-data,scitech-link,","nst":61,"dmin":0.01848,"rms":0.17,"gap":48,"magType":"md","type":"earthquake","title":"M 2.8 - 9km SSE of San Juan Bautista, CA"},"geometry":{"type":"Point","coordinates":[-121.4934998,36.7719994,7.15]},"id":"nc73553930"},
{"type":"Feature","properties":{"mag":5.6,"place":"Owen Fracture Zone region","time":1619287232729,"updated":1619294589715,"tz":null,"url":"https://earthquake.usgs.gov/earthquakes/eventpage/us6000e4f6","detail":"https://earthquake.usgs.gov/earthquakes/feed/v1.0/detail/us6000e4f6.geojson","felt":null,"cdi":null,"mmi":0,"alert":"green","status":"reviewed","tsunami":0,"sig":482,"net":"us","code":"6000e4f6","ids":",us6000e4f6,","sources":",us,","types":",losspager,moment-tensor,origin,phase-data,shakemap,","nst":null,"dmin":11.119,"rms":1.3,"gap":35,"magType":"mww","type":"earthquake","title":"M 5.6 - Owen Fracture Zone region"},"geometry":{"type":"Point","coordinates":[57.1081,13.8006,10]},"id":"us6000e4f6"},
{"type":"Feature","properties":{"mag":2.48,"place":"5 km SSW of Guánica, Puerto Rico","time":1619286601920,"updated":1619288391650,"tz":null,"url":"https://earthquake.usgs.gov/earthquakes/eventpage/pr2021114008","detail":"https://earthquake.usgs.gov/earthquakes/feed/v1.0/detail/pr2021114008.geojson","felt":null,"cdi":null,"mmi":null,"alert":null,"status":"reviewed","tsunami":0,"sig":95,"net":"pr","code":"2021114008","ids":",pr2021114008,","sources":",pr,","types":",origin,phase-data,","nst":18,"dmin":0.1188,"rms":0.2,"gap":213,"magType":"md","type":"earthquake","title":"M 2.5 - 5 km SSW of Guánica, Puerto Rico"},"geometry":{"type":"Point","coordinates":[-66.9326,17.9288,10]},"id":"pr2021114008"},
{"type":"Feature","properties":{"mag":4.4,"place":"34 km NNW of Baghlān, Afghanistan","time":1619283418488,"updated":1619293372040,"tz":null,"url":"https://earthquake.usgs.gov/earthquakes/eventpage/us6000e4er","detail":"https://earthquake.usgs.gov/earthquakes/feed/v1.0/detail/us6000e4er.geojson","felt":null,"cdi":null,"mmi":null,"alert":null,"status":"reviewed","tsunami":0,"sig":298,"net":"us","code":"6000e4er","ids":",us6000e4er,","sources":",us,","types":",origin,phase-data,","nst":null,"dmin":1.738,"rms":0.97,"gap":114,"magType":"mb","type":"earthquake","title":"M 4.4 - 34 km NNW of Baghlān, Afghanistan"},"geometry":{"type":"Point","coordinates":[68.5916,36.4301,54.16]},"id":"us6000e4er"},
{"type":"Feature","properties":{"mag":3,"place":"58 km S of Whites City, New Mexico","time":1619280165156,"updated":1619280908546,"tz":null,"url":"https://earthquake.usgs.gov/earthquakes/eventpage/tx2021hzrp","detail":"https://earthquake.usgs.gov/earthquakes/feed/v1.0/detail/tx2021hzrp.geojson","felt":null,"cdi":null,"mmi":null,"alert":null,"status":"reviewed","tsunami":0,"sig":138,"net":"tx","code":"2021hzrp","ids":",us6000e4e8,tx2021hzrp,","sources":",us,tx,","types":",origin,phase-data,","nst":29,"dmin":0.1212110559,"rms":0.3,"gap":66,"magType":"ml","type":"earthquake","title":"M 3.0 - 58 km S of Whites City, New Mexico"},"geometry":{"type":"Point","coordinates":[-104.3123677,31.65345244,6.157275391]},"id":"tx2021hzrp"},
{"type":"Feature","properties":{"mag":2.62,"place":"22km SW of New Idria, CA","time":1619279682610,"updated":1619291482609,"tz":null,"url":"https://earthquake.usgs.gov/earthquakes/eventpage/nc73553895","detail":"https://earthquake.usgs.gov/earthquakes/feed/v1.0/detail/nc73553895.geojson","felt":2,"cdi":2,"mmi":null,"alert":null,"status":"automatic","tsunami":0,"sig":106,"net":"nc","code":"73553895","ids":",nc73553895,","sources":",nc,","types":",dyfi,focal-mechanism,nearby-cities,origin,phase-data,scitech-link,","nst":35,"dmin":0.08302,"rms":0.11,"gap":107,"magType":"md","type":"earthquake","title":"M 2.6 - 22km SW of New Idria, CA"},"geometry":{"type":"Point","coordinates":[-120.8596649,36.2843323,10.18]},"id":"nc73553895"},
{"type":"Feature","properties":{"mag":4.3,"place":"35 km W of El Cardo, Peru","time":1619278103954,"updated":1619284881835,"tz":null,"url":"https://earthquake.usgs.gov/earthquakes/eventpage/us6000e4e1","detail":"https://earthquake.usgs.gov/earthquakes/feed/v1.0/detail/us6000e4e1.geojson","felt":1,"cdi":1,"mmi":null,"alert":null,"status":"reviewed","tsunami":0,"sig":285,"net":"us","code":"6000e4e1","ids":",us6000e4e1,","sources":",us,","types":",dyfi,origin,phase-data,","nst":null,"dmin":3.149,"rms":0.87,"gap":151,"magType":"mb","type":"earthquake","title":"M 4.3 - 35 km W of El Cardo, Peru"},"geometry":{"type":"Point","coordinates":[-73.0553,-16.5677,75.3]},"id":"us6000e4e1"},
{"type":"Feature","properties":{"mag":3.4,"place":"Puerto Rico region","time":1619274468720,"updated":1619281273040,"tz":null,"url":"https://earthquake.usgs.gov/earthquakes/eventpage/pr2021114006","detail":"https://earthquake.usgs.gov/earthquakes/feed/v1.0/detail/pr2021114006.geojson","felt":null,"cdi":null,"mmi":null,"alert":null,"status":"reviewed","tsunami":0,"sig":178,"net":"pr","code":"2021114006","ids":",us6000e4dp,pr2021114006,","sources":",us,pr,","types":",origin,phase-data,","nst":19,"dmin":1.1069,"rms":0.52,"gap":322,"magType":"md","type":"earthquake","title":"M 3.4 - Puerto Rico region"},"geometry":{"type":"Point","coordinates":[-65.172,19.018,27]},"id":"pr2021114006"},
{"type":"Feature","properties":{"mag":2.99,"place":"5 km SE of La Parguera, Puerto Rico","time":1619273738980,"updated":1619281030040,"tz":null,"url":"https://earthquake.usgs.gov/earthquakes/eventpage/pr2021114005","detail":"https://earthquake.usgs.gov/earthquakes/feed/v1.0/detail/pr2021114005.geojson","felt":null,"cdi":null,"mmi":null,"alert":null,"status":"reviewed","tsunami":0,"sig":138,"net":"pr","code":"2021114005","ids":",us6000e4dj,pr2021114005,","sources":",us,pr,","types":",origin,phase-data,","nst":20,"dmin":0.0501,"rms":0.12,"gap":220,"magType":"md","type":"earthquake","title":"M 3.0 - 5 km SE of La Parguera, Puerto Rico"},"geometry":{"type":"Point","coordinates":[-67.0031,17.9408,8]},"id":"pr2021114005"},
{"type":"Feature","properties":{"mag":4.1,"place":"16 km SSE of Izalco, El Salvador","time":1619271410901,"updated":1619280243040,"tz":null,"url":"https://earthquake.usgs.gov/earthquakes/eventpage/us6000e4db","detail":"https://earthquake.usgs.gov/earthquakes/feed/v1.0/detail/us6000e4db.geojson","felt":null,"cdi":null,"mmi":null,"alert":null,"status":"reviewed","tsunami":0,"sig":259,"net":"us","code":"6000e4db","ids":",us6000e4db,","sources":",us,","types":",origin,phase-data,","nst":null,"dmin":0.162,"rms":1.02,"gap":155,"magType":"mb","type":"earthquake","title":"M 4.1 - 16 km SSE of Izalco, El Salvador"},"geometry":{"type":"Point","coordinates":[-89.6104,13.6127,103.96]},"id":"us6000e4db"},
{"type":"Feature","properties":{"mag":3,"place":"Gulf of Alaska","time":1619269995792,"updated":1619270259780,"tz":null,"url":"https://earthquake.usgs.gov/earthquakes/eventpage/ak02158r329d","detail":"https://earthquake.usgs.gov/earthquakes/feed/v1.0/detail/ak02158r329d.geojson","felt":null,"cdi":null,"mmi":null,"alert":null,"status":"automatic","tsunami":0,"sig":138,"net":"ak","code":"02158r329d","ids":",ak02158r329d,","sources":",ak,","types":",origin,","nst":null,"dmin":null,"rms":0.71,"gap":null,"magType":"ml","type":"earthquake","title":"M 3.0 - Gulf of Alaska"},"geometry":{"type":"Point","coordinates":[-149.252,55.9333,0]},"id":"ak02158r329d"},
{"type":"Feature","properties":{"mag":2.95,"place":"5 km SE of La Parguera, Puerto Rico","time":1619266355800,"updated":1619270032438,"tz":null,"url":"https://earthquake.usgs.gov/earthquakes/eventpage/pr2021114004","detail":"https://earthquake.usgs.gov/earthquakes/feed/v1.0/detail/pr2021114004.geojson","felt":null,"cdi":null,"mmi":null,"alert":null,"status":"reviewed","tsunami":0,"sig":134,"net":"pr","code":"2021114004","ids":",pr2021114004,","sources":",pr,","types":",origin,phase-data,","nst":20,"dmin":0.0438,"rms":0.13,"gap":220,"magType":"md","type":"earthquake","title":"M 3.0 - 5 km SE of La Parguera, Puerto Rico"},"geometry":{"type":"Point","coordinates":[-67.0083,17.9443,9]},"id":"pr2021114004"},
{"type":"Feature","properties":{"mag":2.7,"place":"47 km W of Mentone, Texas","time":1619265137087,"updated":1619265962040,"tz":null,"url":"https://earthquake.usgs.gov/earthquakes/eventpage/tx2021hzji","detail":"https://earthquake.usgs.gov/earthquakes/feed/v1.0/detail/tx2021hzji.geojson","felt":null,"cdi":null,"mmi":null,"alert":null,"status":"reviewed","tsunami":0,"sig":112,"net":"tx","code":"2021hzji","ids":",us6000e4ce,tx2021hzji,","sources":",us,tx,","types":",origin,phase-data,","nst":12,"dmin":0.06020229916,"rms":0.2,"gap":66,"magType":"ml","type":"earthquake","title":"M 2.7 - 47 km W of Mentone, Texas"},"geometry":{"type":"Point","coordinates":[-104.1010651,31.73608874,6.799975586]},"id":"tx2021hzji"},
{"type":"Feature","properties":{"mag":2.5,"place":"40 km NW of Elfin Cove, Alaska","time":1619264302920,"updated":1619266448040,"tz":null,"url":"https://earthquake.usgs.gov/earthquakes/eventpage/ak02158q1ixg","detail":"https://earthquake.usgs.gov/earthquakes/feed/v1.0/detail/ak02158q1ixg.geojson","felt":null,"cdi":null,"mmi":null,"alert":null,"status":"automatic","tsunami":0,"sig":96,"net":"ak","code":"02158q1ixg","ids":",us6000e4cb,ak02158q1ixg,","sources":",us,ak,","types":",origin,phase-data,","nst":null,"dmin":null,"rms":0.76,"gap":null,"magType":"ml","type":"earthquake","title":"M 2.5 - 40 km NW of Elfin Cove, Alaska"},"geometry":{"type":"Point","coordinates":[-136.8545,58.4339,1.2]},"id":"ak02158q1ixg"},
{"type":"Feature","properties":{"mag":5,"place":"Rat Islands, Aleutian Islands, Alaska","time":1619256641854,"updated":1619300456495,"tz":null,"url":"https://earthquake.usgs.gov/earthquakes/eventpage/us6000e4bf","detail":"https://earthquake.usgs.gov/earthquakes/feed/v1.0/detail/us6000e4bf.geojson","felt":1,"cdi":2,"mmi":null,"alert":null,"status":"reviewed","tsunami":1,"sig":385,"net":"us","code":"6000e4bf","ids":",us6000e4bf,at00qs2af6,ak02158ot4e8,","sources":",us,at,ak,","types":",dyfi,impact-link,oaf,origin,phase-data,","nst":null,"dmin":1.709,"rms":0.83,"gap":83,"magType":"mww","type":"earthquake","title":"M 5.0 - Rat Islands, Aleutian Islands, Alaska"},"geometry":{"type":"Point","coordinates":[178.4512,52.004,110.21]},"id":"us6000e4bf"},
{"type":"Feature","properties":{"mag":2.64,"place":"8 km WSW of Guánica, Puerto Rico","time":1619254265750,"updated":1619256983236,"tz":null,"url":"https://earthquake.usgs.gov/earthquakes/eventpage/pr2021114003","detail":"https://earthquake.usgs.gov/earthquakes/feed/v1.0/detail/pr2021114003.geojson","felt":null,"cdi":null,"mmi":null,"alert":null,"status":"reviewed","tsunami":0,"sig":107,"net":"pr","code":"2021114003","ids":",pr2021114003,","sources":",pr,","types":",origin,phase-data,","nst":22,"dmin":0.079,"rms":0.19,"gap":222,"magType":"md","type":"earthquake","title":"M 2.6 - 8 km WSW of Guánica, Puerto Rico"},"geometry":{"type":"Point","coordinates":[-66.9763,17.9291,9]},"id":"pr2021114003"},
{"type":"Feature","properties":{"mag":4.8,"place":"131 km SSE of Amahai, Indonesia","time":1619254235026,"updated":1619255255040,"tz":null,"url":"https://earthquake.usgs.gov/earthquakes/eventpage/us6000e4b2","detail":"https://earthquake.usgs.gov/earthquakes/feed/v1.0/detail/us6000e4b2.geojson","felt":null,"cdi":null,"mmi":null,"alert":null,"status":"reviewed","tsunami":0,"sig":354,"net":"us","code":"6000e4b2","ids":",us6000e4b2,","sources":",us,","types":",origin,phase-data,","nst":null,"dmin":3.041,"rms":0.76,"gap":47,"magType":"mb","type":"earthquake","title":"M 4.8 - 131 km SSE of Amahai, Indonesia"},"geometry":{"type":"Point","coordinates":[129.5509,-4.3426,107.86]},"id":"us6000e4b2"},
{"type":"Feature","properties":{"mag":2.5,"place":"35 km NNE of Benton, California","time":1619253127730,"updated":1619256571019,"tz":null,"url":"https://earthquake.usgs.gov/earthquakes/eventpage/nn00805686","detail":"https://earthquake.usgs.gov/earthquakes/feed/v1.0/detail/nn00805686.geojson","felt":null,"cdi":null,"mmi":null,"alert":null,"status":"automatic","tsunami":0,"sig":96,"net":"nn","code":"00805686","ids":",nn00805686,","sources":",nn,","types":",origin,phase-data,","nst":33,"dmin":0.186,"rms":0.2,"gap":78.83,"magType":"ml","type":"earthquake","title":"M 2.5 - 35 km NNE of Benton, California"},"geometry":{"type":"Point","coordinates":[-118.254,38.0857,13.5]},"id":"nn00805686"},
{"type":"Feature","properties":{"mag":2.53,"place":"3 km E of Pole Ojea, Puerto Rico","time":1619252114420,"updated":1619253677456,"tz":null,"url":"https://earthquake.usgs.gov/earthquakes/eventpage/pr2021114002","detail":"https://earthquake.usgs.gov/earthquakes/feed/v1.0/detail/pr2021114002.geojson","felt":null,"cdi":null,"mmi":null,"alert":null,"status":"reviewed","tsunami":0,"sig":98,"net":"pr","code":"2021114002","ids":",pr2021114002,","sources":",pr,","types":",origin,phase-data,","nst":18,"dmin":0.0514,"rms":0.14,"gap":269,"magType":"md","type":"earthquake","title":"M 2.5 - 3 km E of Pole Ojea, Puerto Rico"},"geometry":{"type":"Point","coordinates":[-67.1493,17.9738,6]},"id":"pr2021114002"},
{"type":"Feature","properties":{"mag":2.95,"place":"Puerto Rico region","time":1619247597430,"updated":1619252558929,"tz":null,"url":"https://earthquake.usgs.gov/earthquakes/eventpage/pr2021114001","detail":"https://earthquake.usgs.gov/earthquakes/feed/v1.0/detail/pr2021114001.geojson","felt":null,"cdi":null,"mmi":null,"alert":null,"status":"reviewed","tsunami":0,"sig":134,"net":"pr","code":"2021114001","ids":",pr2021114001,","sources":",pr,","types":",origin,phase-data,","nst":22,"dmin":0.2499,"rms":0.17,"gap":232,"magType":"md","type":"earthquake","title":"M 3.0 - Puerto Rico region"},"geometry":{"type":"Point","coordinates":[-66.8505,17.8116,2]},"id":"pr2021114001"},
{"type":"Feature","properties":{"mag":2.52,"place":"4 km SE of La Parguera, Puerto Rico","time":1619246415620,"updated":1619248714333,"tz":null,"url":"https://earthquake.usgs.gov/earthquakes/eventpage/pr2021114000","detail":"https://earthquake.usgs.gov/earthquakes/feed/v1.0/detail/pr2021114000.geojson","felt":null,"cdi":null,"mmi":null,"alert":null,"status":"reviewed","tsunami":0,"sig":98,"net":"pr","code":"2021114000","ids":",pr2021114000,","sources":",pr,","types":",origin,phase-data,","nst":18,"dmin":0.0352,"rms":0.11,"gap":222,"magType":"md","type":"earthquake","title":"M 2.5 - 4 km SE of La Parguera, Puerto Rico"},"geometry":{"type":"Point","coordinates":[-67.0195,17.9443,12]},"id":"pr2021114000"},
{"type":"Feature","properties":{"mag":2.7,"place":"30km SSW of Qualeys Camp, NV","time":1619242488490,"updated":1619253366399,"tz":null,"url":"https://earthquake.usgs.gov/earthquakes/eventpage/nc73553705","detail":"https://earthquake.usgs.gov/earthquakes/feed/v1.0/detail/nc73553705.geojson","felt":null,"cdi":null,"mmi":null,"alert":null,"status":"automatic","tsunami":0,"sig":112,"net":"nc","code":"73553705","ids":",nc73553705,nn00805676,us6000e49v,","sources":",nc,nn,us,","types":",focal-mechanism,nearby-cities,origin,phase-data,scitech-link,","nst":33,"dmin":null,"rms":0.23,"gap":73,"magType":"md","type":"earthquake","title":"M 2.7 - 30km SSW of Qualeys Camp, NV"},"geometry":{"type":"Point","coordinates":[-118.694664,38.0696678,-1.46]},"id":"nc73553705"},
{"type":"Feature","properties":{"mag":4.6,"place":"63 km SW of Santiago de Cao, Peru","time":1619240501698,"updated":1619242654338,"tz":null,"url":"https://earthquake.usgs.gov/earthquakes/eventpage/us6000e49s","detail":"https://earthquake.usgs.gov/earthquakes/feed/v1.0/detail/us6000e49s.geojson","felt":4,"cdi":3.3,"mmi":null,"alert":null,"status":"reviewed","tsunami":0,"sig":327,"net":"us","code":"6000e49s","ids":",us6000e49s,","sources":",us,","types":",dyfi,origin,phase-data,","nst":null,"dmin":4.612,"rms":0.53,"gap":138,"magType":"mb","type":"earthquake","title":"M 4.6 - 63 km SW of Santiago de Cao, Peru"},"geometry":{"type":"Point","coordinates":[-79.7,-8.3095,56.67]},"id":"us6000e49s"},
{"type":"Feature","properties":{"mag":2.8,"place":"31 km SE of Mina, Nevada","time":1619235322290,"updated":1619236666107,"tz":null,"url":"https://earthquake.usgs.gov/earthquakes/eventpage/nn00805669","detail":"https://earthquake.usgs.gov/earthquakes/feed/v1.0/detail/nn00805669.geojson","felt":null,"cdi":null,"mmi":null,"alert":null,"status":"automatic","tsunami":0,"sig":121,"net":"nn","code":"00805669","ids":",us6000e494,nn00805669,","sources":",us,nn,","types":",origin,phase-data,","nst":30,"dmin":0.021,"rms":0.12,"gap":48.74,"magType":"ml","type":"earthquake","title":"M 2.8 - 31 km SE of Mina, Nevada"},"geometry":{"type":"Point","coordinates":[-117.8668,38.1797,13.8]},"id":"nn00805669"},
{"type":"Feature","properties":{"mag":4.5,"place":"107 km NNW of Davila, Philippines","time":1619234116415,"updated":1619235835040,"tz":null,"url":"https://earthquake.usgs.gov/earthquakes/eventpage/us6000e490","detail":"https://earthquake.usgs.gov/earthquakes/feed/v1.0/detail/us6000e490.geojson","felt":null,"cdi":null,"mmi":null,"alert":null,"status":"reviewed","tsunami":0,"sig":312,"net":"us","code":"6000e490","ids":",us6000e490,","sources":",us,","types":",origin,phase-data,","nst":null,"dmin":3.528,"rms":0.76,"gap":119,"magType":"mb","type":"earthquake","title":"M 4.5 - 107 km NNW of Davila, Philippines"},"geometry":{"type":"Point","coordinates":[120.1841,19.3724,10]},"id":"us6000e490"},
{"type":"Feature","properties":{"mag":4.3,"place":"149 km SE of Kuril’sk, Russia","time":1619232271824,"updated":1619233677040,"tz":null,"url":"https://earthquake.usgs.gov/earthquakes/eventpage/us6000e48h","detail":"https://earthquake.usgs.gov/earthquakes/feed/v1.0/detail/us6000e48h.geojson","felt":null,"cdi":null,"mmi":null,"alert":null,"status":"reviewed","tsunami":0,"sig":284,"net":"us","code":"6000e48h","ids":",us6000e48h,","sources":",us,","types":",origin,phase-data,","nst":null,"dmin":4.827,"rms":0.58,"gap":169,"magType":"mb","type":"earthquake","title":"M 4.3 - 149 km SE of Kuril’sk, Russia"},"geometry":{"type":"Point","coordinates":[149.3027,44.35,49.9]},"id":"us6000e48h"},
{"type":"Feature","properties":{"mag":4.2,"place":"109 km NE of Iquique, Chile","time":1619228645040,"updated":1619265864519,"tz":null,"url":"https://earthquake.usgs.gov/earthquakes/eventpage/us6000e484","detail":"https://earthquake.usgs.gov/earthquakes/feed/v1.0/detail/us6000e484.geojson","felt":1,"cdi":1,"mmi":null,"alert":null,"status":"reviewed","tsunami":0,"sig":271,"net":"us","code":"6000e484","ids":",us6000e484,","sources":",us,","types":",dyfi,origin,phase-data,","nst":null,"dmin":0.101,"rms":0.6,"gap":66,"magType":"mb","type":"earthquake","title":"M 4.2 - 109 km NE of Iquique, Chile"},"geometry":{"type":"Point","coordinates":[-69.298,-19.6409,102.4]},"id":"us6000e484"},
{"type":"Feature","properties":{"mag":3.8,"place":"90 km ESE of Adak, Alaska","time":1619227588464,"updated":1619258580788,"tz":null,"url":"https://earthquake.usgs.gov/earthquakes/eventpage/us6000e47v","detail":"https://earthquake.usgs.gov/earthquakes/feed/v1.0/detail/us6000e47v.geojson","felt":null,"cdi":null,"mmi":null,"alert":null,"status":"reviewed","tsunami":0,"sig":222,"net":"us","code":"6000e47v","ids":",ak02158k0mp5,us6000e47v,","sources":",ak,us,","types":",origin,phase-data,","nst":null,"dmin":0.606,"rms":1.19,"gap":195,"magType":"mb","type":"earthquake","title":"M 3.8 - 90 km ESE of Adak, Alaska"},"geometry":{"type":"Point","coordinates":[-175.3691,51.6651,50.21]},"id":"us6000e47v"},
{"type":"Feature","properties":{"mag":3.1,"place":"48 km NNE of Chickaloon, Alaska","time":1619226343370,"updated":1619228129710,"tz":null,"url":"https://earthquake.usgs.gov/earthquakes/eventpage/ak02158jw5to","detail":"https://earthquake.usgs.gov/earthquakes/feed/v1.0/detail/ak02158jw5to.geojson","felt":2,"cdi":2,"mmi":null,"alert":null,"status":"automatic","tsunami":0,"sig":148,"net":"ak","code":"02158jw5to","ids":",ak02158jw5to,us6000e47u,","sources":",ak,us,","types":",dyfi,origin,phase-data,","nst":null,"dmin":null,"rms":0.66,"gap":null,"magType":"ml","type":"earthquake","title":"M 3.1 - 48 km NNE of Chickaloon, Alaska"},"geometry":{"type":"Point","coordinates":[-148.1729,62.2108,20.5]},"id":"ak02158jw5to"},
{"type":"Feature","properties":{"mag":5,"place":"northern Mid-Atlantic Ridge","time":1619225785074,"updated":1619226723040,"tz":null,"url":"https://earthquake.usgs.gov/earthquakes/eventpage/us6000e47p","detail":"https://earthquake.usgs.gov/earthquakes/feed/v1.0/detail/us6000e47p.geojson","felt":null,"cdi":null,"mmi":null,"alert":null,"status":"reviewed","tsunami":0,"sig":385,"net":"us","code":"6000e47p","ids":",us6000e47p,","sources":",us,","types":",origin,phase-data,","nst":null,"dmin":21.136,"rms":0.61,"gap":51,"magType":"mb","type":"earthquake","title":"M 5.0 - northern Mid-Atlantic Ridge"},"geometry":{"type":"Point","coordinates":[-40.2065,32.5273,10]},"id":"us6000e47p"},
{"type":"Feature","properties":{"mag":6.5,"place":"223 km WNW of Pangai, Tonga","time":1619223818098,"updated":1619243669638,"tz":null,"url":"https://earthquake.usgs.gov/earthquakes/eventpage/us6000e47c","detail":"https://earthquake.usgs.gov/earthquakes/feed/v1.0/detail/us6000e47c.geojson","felt":3,"cdi":5.9,"mmi":3.583,"alert":"green","status":"reviewed","tsunami":0,"sig":652,"net":"us","code":"6000e47c","ids":",us6000e47c,","sources":",us,","types":",dyfi,losspager,moment-tensor,origin,phase-data,shakemap,","nst":null,"dmin":4.92,"rms":0.91,"gap":19,"magType":"mww","type":"earthquake","title":"M 6.5 - 223 km WNW of Pangai, Tonga"},"geometry":{"type":"Point","coordinates":[-176.26,-18.9189,301]},"id":"us6000e47c"}],"bbox":[-176.26,-27.5312,-1.46,178.4512,69.6809,301]}