{"type":"FeatureCollection","crs":{"type":"name","properties":{"name":"EPSG:4326"}},"features":[{"type":"Feature","id":1,"geometry":{"type":"LineString","coordinates":[[-179.999988540844,-23.5599430246262],[-178.923016044297,-23.5599430246262],[-177.923006745886,-23.5599430246262],[-176.922997447475,-23.5599430246262],[-175.922988149064,-23.5599430246262],[-174.922978850653,-23.5599430246262],[-173.922969552242,-23.5599430246262],[-172.923041634796,-23.5599430246262],[-172.500023378518,-23.5599430246262],[-171.92295095542,-23.5599430246262],[-170.923023037974,-23.5599430246262],[-169.92297304908,-23.5599430246262],[-168.923004441152,-23.5599430246262],[-167.922995142741,-23.5599430246262],[-166.923026534812,-23.5599430246262],[-165.922976545919,-23.5599430246262],[-164.92300793799,-23.5599430246262],[-163.922998639579,-23.5599430246262],[-162.922989341168,-23.5599430246262],[-161.923061423722,-23.5599430246262],[-160.922970744346,-23.5599430246262],[-159.9230428269,-23.5599430246262],[-158.922952147524,-23.5599430246262],[-157.923024230078,-23.5599430246262],[-156.923014931667,-23.5599430246262],[-155.923005633256,-23.5599430246262],[-154.922996334845,-23.5599430246262],[-153.922987036434,-23.5599430246262],[-152.922977738023,-23.5599430246262],[-151.922968439612,-23.5599430246262],[-150.923040522166,-23.5599430246262],[-149.92294984279,-23.5599430246262],[-148.923062615826,-23.5599430246262],[-147.92297193645,-23.5599430246262],[-146.923003328521,-23.5599430246262],[-145.923034720593,-23.5599430246262],[-144.923025422182,-23.5599430246262],[-143.922975433288,-23.5599430246262],[-142.92300682536,-23.5599430246262],[-141.922997526949,-23.5599430246262],[-140.922988228538,-23.5599430246262],[-139.923060311092,-23.5599430246262],[-138.922969631716,-23.5599430246262],[-137.923082404752,-23.5599430246262],[-136.923032415859,-23.5599430246262],[-135.923023117448,-23.5599430246262],[-134.923013819036,-23.5599430246262],[-133.923004520625,-23.5599430246262],[-132.922995222214,-23.5599430246262],[-131.922985923803,-23.5599430246262],[-130.922976625392,-23.5599430246262],[-129.923008017464,-23.5599430246262],[-128.923039409535,-23.5599430246262],[-127.922948730159,-23.5599430246262],[-126.923061503196,-23.5599430246262],[-125.923011514302,-23.5599430246262],[-124.923002215891,-23.5599430246262],[-123.923033607963,-23.5599430246262],[-122.923024309551,-23.5599430246262],[-121.922974320658,-23.5599430246262],[-120.923005712729,-23.5599430246262],[-119.923077795283,-23.5599430246262],[-118.922987115907,-23.5599430246262],[-117.923059198461,-23.5599430246262],[-116.92304990005,-23.5599430246262],[-115.923081292122,-23.5599430246262],[-114.923031303228,-23.5599430246262],[-113.923022004817,-23.5599430246262],[-112.923012706406,-23.5599430246262],[-111.923003407995,-23.5599430246262],[-110.923034800067,-23.5599430246262],[-109.923025501655,-23.5599430246262],[-108.923056893727,-23.5599430246262],[-107.923006904833,-23.5599430246262],[-106.923038296905,-23.5599430246262],[-105.923028998494,-23.5599430246262],[-104.923060390565,-23.5599430246262],[-103.923051092154,-23.5599430246262],[-102.923041793743,-23.5599430246262],[-101.923032495332,-23.5599430246262],[-100.923023196921,-23.5599430246262],[-99.9230138985101,-23.5599430246262],[-98.923004600099,-23.5599430246262],[-97.923076682653,-23.5599430246262],[-96.9229860032769,-23.5599430246262],[-95.9230580858309,-23.5599430246262],[-94.9230487874199,-23.5599430246262],[-93.9230801794914,-23.5599430246262],[-92.9230708810803,-23.5599430246262],[-91.9230208921867,-23.5599430246262],[-90.9230115937757,-23.5599430246262],[-89.9230429858472,-23.5599430246262],[-88.9230743779186,-23.5599430246262],[-87.9230243890251,-23.5599430246262],[-86.9230964715791,-23.5599430246262],[-85.923005792203,-23.5599430246262],[-84.923077874757,-23.5599430246262],[-83.9230685763459,-23.5599430246262],[-82.9230592779349,-23.5599430246262],[-81.9230499795238,-23.5599430246262],[-80.9230406811128,-23.5599430246262],[-79.9230313827018,-23.5599430246262],[-78.9230220842907,-23.5599430246262],[-77.9230941668447,-23.5599430246262],[-76.9230441779511,-23.5599430246262],[-75.9230755700227,-23.5599430246262],[-74.9229848906466,-23.5599430246262],[-73.9230569732005,-23.5599430246262],[-72.9230476747895,-23.5599430246262],[-71.9230790668609,-23.5599430246262],[-70.9230697684499,-23.5599430246262],[-69.9230604700388,-23.5599430246262],[-68.9230104811453,-23.5599430246262],[-67.9230418732168,-23.5599430246262],[-66.9231139557708,-23.5599430246262],[-65.9230232763947,-23.5599430246262],[-64.9230953589487,-23.5599430246262],[-63.9230860605377,-23.5599430246262],[-62.9230767621266,-23.5599430246262],[-61.9230674637155,-23.5599430246262],[-60.9230581653045,-23.5599430246262],[-59.9230488668934,-23.5599430246262],[-58.9230395684824,-23.5599430246262],[-57.9230302700713,-23.5599430246262],[-56.9230209716604,-23.5599430246262],[-55.9230930542143,-23.5599430246262],[-54.9230023748383,-23.5599430246262],[-53.9230744573923,-23.5599430246262],[-52.9230651589812,-23.5599430246262],[-51.9230558605702,-23.5599430246262],[-50.9231279431242,-23.5599430246262],[-49.9230779542305,-23.5599430246262],[-48.9231093463021,-23.5599430246262],[-47.923018666926,-23.5599430246262],[-46.92309074948,-23.5599430246262],[-45.9231221415515,-23.5599430246262],[-44.9230721526579,-23.5599430246262],[-43.9231035447294,-23.5599430246262],[-42.9230942463183,-23.5599430246262],[-41.9230442574247,-23.5599430246262],[-40.9230349590136,-23.5599430246262],[-39.9230663510852,-23.5599430246262],[-38.9231791241217,-23.5599430246262],[-37.9230477542631,-23.5599430246262],[-36.9231198368171,-23.5599430246262],[-35.923110538406,-23.5599430246262],[-34.923101239995,-23.5599430246262],[-33.9230919415839,-23.5599430246262],[-32.9231233336554,-23.5599430246262],[-31.9230733447619,-23.5599430246262],[-30.9230640463508,-23.5599430246262],[-29.9231768193874,-23.5599430246262],[-28.9230861400112,-23.5599430246262],[-27.9231582225652,-23.5599430246262],[-26.9230675431891,-23.5599430246262],[-25.9231396257431,-23.5599430246262],[-24.9230896368496,-23.5599430246262],[-23.923121028921,-23.5599430246262],[-22.92311173051,-23.5599430246262],[-21.923102432099,-23.5599430246262],[-20.923093133688,-23.5599430246262],[-19.9230838352769,-23.5599430246262],[-18.9231559178309,-23.5599430246262],[-17.9230652384548,-23.5599430246262],[-16.9231780114913,-23.5599430246262],[-15.9231280225977,-23.5599430246262],[-14.9231187241867,-23.5599430246262],[-13.9231094257756,-23.5599430246262],[-12.9231001273646,-23.5599430246262],[-11.9231315194361,-23.5599430246262],[-10.9231222210251,-23.5599430246262],[-9.92307223213143,-23.5599430246262],[-8.92306293372044,-23.5599430246262],[-7.92313501627444,-23.5599430246262],[-6.92304433689836,-23.5599430246262],[-5.92319780041734,-23.5599430246262],[-4.92310712104126,-23.5599430246262],[-3.92309782263027,-23.5599430246262],[-2.9230885242192,-23.5599430246262],[-1.92307922580818,-23.5599430246262],[-0.923151308362179,-23.5599430246262],[0.0769800614964424,-23.5599430246262],[1.07711143135506,-23.5599430246262],[2.07703934880107,-23.5599430246262],[3.07704864721214,-23.5599430246262],[4.07697656465805,-23.5599430246262],[5.07714862499921,-23.5599430246262],[6.07699516148014,-23.5599430246262],[7.0771672218213,-23.5599430246262],[8.07701375830231,-23.5599430246262],[9.0771044376784,-23.5599430246262],[10.0770323551244,-23.5599430246262],[11.0769602725703,-23.5599430246262],[12.0770509519465,-23.5599430246262],[13.0769788693925,-23.5599430246262],[14.0770695487686,-23.5599430246262],[15.0770788471796,-23.5599430246262],[16.0770881455907,-23.5599430246262],[17.0770160630367,-23.5599430246262],[18.0771067424128,-23.5599430246262],[19.0770346598588,-23.5599430246262],[20.0771253392348,-23.5599430246262],[21.0771346376459,-23.5599430246262],[22.0768997931618,-23.5599430246262],[23.0770718535029,-23.5599430246262],[24.0769997709489,-23.5599430246262],[25.0770090693599,-23.5599430246262],[26.077018367771,-23.5599430246262],[27.0771090471471,-23.5599430246262],[28.076874202663,-23.5599430246262],[29.0771276439692,-23.5599430246262],[30.0770555614152,-23.5599430246262],[31.0769834788612,-23.5599430246262],[32.0770741582373,-23.5599430246262],[33.0770020756833,-23.5599430246262],[34.0770113740944,-23.5599430246262],[35.0769392915403,-23.5599430246262],[36.0771113518814,-23.5599430246262],[37.0770392693275,-23.5599430246262],[38.0771299487035,-23.5599430246262],[39.0769764851845,-23.5599430246262],[40.0769857835955,-23.5599430246262],[41.0769950820066,-23.5599430246262],[42.0769229994526,-23.5599430246262],[43.0770950597937,-23.5599430246262],[44.0769415962747,-23.5599430246262],[45.0770322756508,-23.5599430246262],[46.0770415740618,-23.5599430246262],[47.0770508724729,-23.5599430246262],[48.0769787899189,-23.5599430246262],[49.077069469295,-23.5599430246262],[50.0769973867409,-23.5599430246262],[51.0770880661171,-23.5599430246262],[52.077097364528,-23.5599430246262],[53.0770252819741,-23.5599430246262],[54.0770345803851,-23.5599430246262],[55.0769624978312,-23.5599430246262],[56.0769717962422,-23.5599430246262],[57.0769810946532,-23.5599430246262],[58.0771531549943,-23.5599430246262],[59.0769996914753,-23.5599430246262],[60.0770903708514,-23.5599430246262],[61.0770182882974,-23.5599430246262],[62.0769462057434,-23.5599430246262],[63.0770368851195,-23.5599430246262],[64.0769648025655,-23.5599430246262],[65.0769741009766,-23.5599430246262],[66.0769020184226,-23.5599430246262],[67.0770740787637,-23.5599430246262],[68.0770019962096,-23.5599430246262],[69.0770926755857,-23.5599430246262],[70.0770205930317,-23.5599430246262],[71.0770298914428,-23.5599430246262],[72.0769578088888,-23.5599430246262],[73.0768857263348,-23.5599430246262],[74.0770577866759,-23.5599430246262],[75.077067085087,-23.5599430246262],[76.0769950025329,-23.5599430246262],[77.0770043009441,-23.5599430246262],[78.077013599355,-23.5599430246262],[79.0769415168011,-23.5599430246262],[80.0771135771422,-23.5599430246262],[81.0769601136232,-23.5599430246262],[82.0770507929992,-23.5599430246262],[83.0770600914103,-23.5599430246262],[84.0769880088564,-23.5599430246262],[85.0769973072673,-23.5599430246262],[86.0769252247133,-23.5599430246262],[87.0770159040894,-23.5599430246262],[88.0769438215354,-23.5599430246262],[89.0771158818766,-23.5599430246262],[90.0770437993226,-23.5599430246262],[91.0770530977336,-23.5599430246262],[92.0769810151796,-23.5599430246262],[93.0769903135907,-23.5599430246262],[94.0769996120017,-23.5599430246262],[95.0769275294477,-23.5599430246262],[96.0770182088238,-23.5599430246262],[97.0770275072349,-23.5599430246262],[98.0770368056459,-23.5599430246262],[99.0769647230919,-23.5599430246262],[100.077055402468,-23.5599430246262],[101.076983319914,-23.5599430246262],[102.07707399929,-23.5599430246262],[103.077083297701,-23.5599430246262],[104.076929834182,-23.5599430246262],[105.077020513558,-23.5599430246262],[106.076948431004,-23.5599430246262],[107.07703911038,-23.5599430246262],[108.076967027826,-23.5599430246262],[109.076976326237,-23.5599430246262],[110.076904243683,-23.5599430246262],[111.077076304024,-23.5599430246262],[112.07700422147,-23.5599430246262],[113.077013519881,-23.5599430246262],[114.077022818293,-23.5599430246262],[115.076950735739,-23.5599430246262],[116.07696003415,-23.5599430246262],[117.076887951596,-23.5599430246262],[118.077060011937,-23.5599430246262],[119.076987929383,-23.5599430246262],[120.077078608759,-23.5599430246262],[121.077006526205,-23.5599430246262],[122.077015824616,-23.5599430246262],[123.076943742062,-23.5599430246262],[124.077115802403,-23.5599430246262],[125.076962338884,-23.5599430246262],[126.07689025633,-23.5599430246262],[127.076980935706,-23.5599430246262],[128.076990234117,-23.5599430246262],[129.076999532528,-23.5599430246262],[130.076927449974,-23.5599430246262],[131.07701812935,-23.5599430246262],[132.076946046796,-23.5599430246262],[133.077036726172,-23.5599430246262],[134.077046024583,-23.5599430246262],[135.076973942029,-23.5599430246262],[136.07698324044,-23.5599430246262],[137.076911157886,-23.5599430246262],[138.077001837262,-23.5599430246262],[139.076929754709,-23.5599430246262],[140.07710181505,-23.5599430246262],[141.077029732496,-23.5599430246262],[142.077039030907,-23.5599430246262],[143.076966948353,-23.5599430246262],[144.076976246764,-23.5599430246262],[145.076985545175,-23.5599430246262],[146.077157605516,-23.5599430246262],[147.076922761032,-23.5599430246262],[148.076850678478,-23.5599430246262],[149.077022738819,-23.5599430246262],[150.076950656265,-23.5599430246262],[151.077041335641,-23.5599430246262],[152.076969253087,-23.5599430246262],[153.076978551498,-23.5599430246262],[154.076906468944,-23.5599430246262],[155.077078529285,-23.5599430246262],[156.077006446731,-23.5599430246262],[157.077097126107,-23.5599430246262],[158.077025043553,-23.5599430246262],[159.076952960999,-23.5599430246262],[160.07696225941,-23.5599430246262],[161.076890176856,-23.5599430246262],[162.077062237197,-23.5599430246262],[163.076908773678,-23.5599430246262],[164.076999453055,-23.5599430246262],[165.077008751465,-23.5599430246262],[166.077018049877,-23.5599430246262],[167.076945967323,-23.5599430246262],[168.076873884769,-23.5599430246262],[169.076964564145,-23.5599430246262],[170.076892481591,-23.5599430246262],[171.077064541932,-23.5599430246262],[172.076911078413,-23.5599430246262],[173.077001757789,-23.5599430246262],[174.076929675235,-23.5599430246262],[175.076938973646,-23.5599430246262],[176.076948272057,-23.5599430246262],[177.077120332398,-23.5599430246262],[178.076966868879,-23.5599430246262],[179.016998396056,-23.5599430246262],[179.999673548913,-23.5599430246262]]},"properties":{"FID":1,"scalerank":2,"name":"Tropic of Capricorn","name_long":"Tropic of Capricorn","abbrev":"Tr. of Capricorn","note":"Southern tropic, 23.4° S.","featurecla":"Circle of latitude","min_zoom":4.1,"wikidataid":"Q177440","name_ar":"مدار الجدي","name_bn":"মকরক্রান্তি","name_de":"Südlicher Wendekreis","name_en":"Tropic of Capricorn","name_es":"Trópico de Capricornio","name_fr":"Tropique du Capricorne","name_el":"Τροπικός του Αιγόκερω","name_hi":"मकर रेखा","name_hu":"Baktérítő","name_id":"Garis balik selatan","name_it":"Tropico del Capricorno","name_ja":"南回帰線","name_ko":"남회귀선","name_nl":"Steenbokskeerkring","name_pl":"zwrotnik Koziorożca","name_pt":"Trópico de Capricórnio","name_ru":"Южный тропик","name_sv":"Stenbockens vändkrets","name_tr":"Oğlak Dönencesi","name_vi":"Chí tuyến Nam","name_zh":"南回归线","wdid_score":5,"ne_id":1159100207}},{"type":"Feature","id":2,"geometry":{"type":"LineString","coordinates":[[-179.999970201901,23.4999834861371],[-178.982912434567,23.4999834861371],[-177.982903136156,23.4999834861371],[-176.982893837745,23.4999834861371],[-175.982884539333,23.4999834861371],[-174.982875240922,23.4999834861371],[-173.982865942511,23.4999834861371],[-172.982938025065,23.4999834861371],[-171.982847345689,23.4999834861371],[-170.982960118726,23.4999834861371],[-169.982828748867,23.4999834861371],[-168.982900831421,23.4999834861371],[-167.982932223493,23.4999834861371],[-166.982882234599,23.4999834861371],[-165.982872936188,23.4999834861371],[-164.98290432826,23.4999834861371],[-163.982895029848,23.4999834861371],[-162.982845040955,23.4999834861371],[-161.982957813991,23.4999834861371],[-160.982867134615,23.4999834861371],[-159.982939217169,23.4999834861371],[-158.982929918758,23.4999834861371],[-157.982920620347,23.4999834861371],[-156.982911321936,23.4999834861371],[-155.982902023525,23.4999834861371],[-154.982892725114,23.4999834861371],[-153.982883426703,23.4999834861371],[-152.982955509257,23.4999834861371],[-151.982905520364,23.4999834861371],[-150.982936912435,23.4999834861371],[-149.982846233059,23.4999834861371],[-148.982959006095,23.4999834861371],[-147.982909017202,23.4999834861371],[-146.982899718791,23.4999834861371],[-145.982931110862,23.4999834861371],[-144.982921812451,23.4999834861371],[-143.98291251404,23.4999834861371],[-142.982903215629,23.4999834861371],[-141.982975298183,23.4999834861371],[-140.982884618807,23.4999834861371],[-139.982956701361,23.4999834861371],[-138.98294740295,23.4999834861371],[-137.982938104539,23.4999834861371],[-136.982928806128,23.4999834861371],[-135.982919507717,23.4999834861371],[-134.982910209306,23.4999834861371],[-133.982900910895,23.4999834861371],[-132.982891612484,23.4999834861371],[-131.982882314073,23.4999834861371],[-130.982954396627,23.4999834861371],[-129.982904407733,23.4999834861371],[-128.982935799805,23.4999834861371],[-127.982926501394,23.4999834861371],[-126.982957893465,23.4999834861371],[-125.982907904572,23.4999834861371],[-124.98289860616,23.4999834861371],[-123.982929998232,23.4999834861371],[-122.982880009338,23.4999834861371],[-121.982952091892,23.4999834861371],[-120.982902102999,23.4999834861371],[-119.98293349507,23.4999834861371],[-118.982883506177,23.4999834861371],[-117.982955588731,23.4999834861371],[-116.98294629032,23.4999834861371],[-115.982936991909,23.4999834861371],[-114.982927693498,23.4999834861371],[-113.982918395087,23.4999834861371],[-112.982909096676,23.4999834861371],[-111.982940488747,23.4999834861371],[-110.982971880818,23.4999834861371],[-109.982881201442,23.4999834861371],[-108.982953283996,23.4999834861371],[-107.982903295103,23.4999834861371],[-106.982934687174,23.4999834861371],[-105.982966079246,23.4999834861371],[-104.982916090352,23.4999834861371],[-103.982947482424,23.4999834861371],[-102.982938184013,23.4999834861371],[-101.982928885602,23.4999834861371],[-100.982919587191,23.4999834861371],[-99.982950979262,23.4999834861371],[-98.9829009903684,23.4999834861371],[-97.9829730729224,23.4999834861371],[-96.9829637745113,23.4999834861371],[-95.9829544761004,23.4999834861371],[-94.9829451776893,23.4999834861371],[-93.9829358792782,23.4999834861371],[-92.9829265808672,23.4999834861371],[-91.9829172824561,23.4999834861371],[-90.9829079840451,23.4999834861371],[-89.9829393761165,23.4999834861371],[-88.982970768188,23.4999834861371],[-87.9828800888119,23.4999834861371],[-86.9829928618485,23.4999834861371],[-85.9829428729549,23.4999834861371],[-84.9829742650264,23.4999834861371],[-83.9829649666154,23.4999834861371],[-82.9829149777217,23.4999834861371],[-81.9829463697932,23.4999834861371],[-80.9829370713822,23.4999834861371],[-79.9829684634537,23.4999834861371],[-78.9829184745601,23.4999834861371],[-77.9829498666316,23.4999834861371],[-76.9828591872555,23.4999834861371],[-75.982971960292,23.4999834861371],[-74.9830033523635,23.4999834861371],[-73.9829940539525,23.4999834861371],[-72.9829440650589,23.4999834861371],[-71.9828940761653,23.4999834861371],[-70.9829661587193,23.4999834861371],[-69.9829568603082,23.4999834861371],[-68.9830289428623,23.4999834861371],[-67.9829382634861,23.4999834861371],[-66.9829696555577,23.4999834861371],[-65.9829196666641,23.4999834861371],[-64.9829917492181,23.4999834861371],[-63.9829824508071,23.4999834861371],[-62.982973152396,23.4999834861371],[-61.982963853985,23.4999834861371],[-60.9829138650914,23.4999834861371],[-59.9829452571629,23.4999834861371],[-58.9829359587518,23.4999834861371],[-57.9830080413058,23.4999834861371],[-56.9829173619297,23.4999834861371],[-55.9829487540012,23.4999834861371],[-54.9829801460727,23.4999834861371],[-53.9829708476616,23.4999834861371],[-52.9830022397331,23.4999834861371],[-51.9829522508396,23.4999834861371],[-50.9829429524285,23.4999834861371],[-49.9829336540175,23.4999834861371],[-48.9829243556065,23.4999834861371],[-47.9829150571954,23.4999834861371],[-46.9830278302319,23.4999834861371],[-45.9829371508558,23.4999834861371],[-44.9829685429273,23.4999834861371],[-43.9829999349987,23.4999834861371],[-42.9829906365877,23.4999834861371],[-41.9829813381767,23.4999834861371],[-40.9829720397657,23.4999834861371],[-39.9829627413546,23.4999834861371],[-38.9829534429436,23.4999834861371],[-37.9829441445325,23.4999834861371],[-36.983056917569,23.4999834861371],[-35.9829255477104,23.4999834861371],[-34.9829976302644,23.4999834861371],[-33.9829476413709,23.4999834861371],[-32.9829790334423,23.4999834861371],[-31.9829697350312,23.4999834861371],[-30.9830011271028,23.4999834861371],[-29.9829918286917,23.4999834861371],[-28.9829418397981,23.4999834861371],[-27.9829732318696,23.4999834861371],[-26.9829639334586,23.4999834861371],[-25.9830360160126,23.4999834861371],[-24.9829453366365,23.4999834861371],[-23.9830174191905,23.4999834861371],[-22.9830081207794,23.4999834861371],[-21.9829988223684,23.4999834861371],[-20.9829895239573,23.4999834861371],[-19.9829802255463,23.4999834861371],[-18.9829709271353,23.4999834861371],[-17.9829616287242,23.4999834861371],[-16.9829523303132,23.4999834861371],[-15.9829430319021,23.4999834861371],[-14.9830151144561,23.4999834861371],[-13.9830058160451,23.4999834861371],[-12.982996517634,23.4999834861371],[-11.982987219223,23.4999834861371],[-10.9829779208119,23.4999834861371],[-9.9829686224009,23.4999834861371],[-8.98295932398983,23.4999834861371],[-7.98299071606135,23.4999834861371],[-6.98298141765028,23.4999834861371],[-5.98301280972174,23.4999834861371],[-4.98292213034566,23.4999834861371],[-3.98307559386473,23.4999834861371],[-2.98306629545363,23.4999834861371],[-1.98297561607757,23.4999834861371],[-0.983047698631566,23.4999834861371],[0.0170429807445203,23.4999834861371],[1.01713366012061,23.4999834861371],[2.01706157756661,23.4999834861371],[3.01723363790776,23.4999834861371],[4.01716155535377,23.4999834861371],[5.01708947279977,23.4999834861371],[6.01709877121078,23.4999834861371],[7.01710806962186,23.4999834861371],[8.01711736803287,23.4999834861371],[9.01704528547887,23.4999834861371],[10.01721734582,23.4999834861371],[11.016982501336,23.4999834861371],[12.017154561677,23.4999834861371],[13.0171638600881,23.4999834861371],[14.0171731584992,23.4999834861371],[15.0171010759451,23.4999834861371],[16.0170289933911,23.4999834861371],[17.0170382918022,23.4999834861371],[18.0170475902132,23.4999834861371],[19.0171382695894,23.4999834861371],[20.0170661870353,23.4999834861371],[21.0171568664115,23.4999834861371],[22.0170847838574,23.4999834861371],[23.0170940822685,23.4999834861371],[24.0171033806795,23.4999834861371],[25.0171940600556,23.4999834861371],[26.0171219775016,23.4999834861371],[27.0169685139826,23.4999834861371],[28.0171405743237,23.4999834861371],[29.0170684917697,23.4999834861371],[30.0171591711457,23.4999834861371],[31.0170057076267,23.4999834861371],[32.0171777679678,23.4999834861371],[33.0170243044488,23.4999834861371],[34.0171963647899,23.4999834861371],[35.017124282236,23.4999834861371],[36.017052199682,23.4999834861371],[37.017061498093,23.4999834861371],[38.0170707965041,23.4999834861371],[39.0170800949151,23.4999834861371],[40.0170080123611,23.4999834861371],[41.0171800727022,23.4999834861371],[42.0171079901482,23.4999834861371],[43.0171172885593,23.4999834861371],[44.0171265869703,23.4999834861371],[45.0171358853814,23.4999834861371],[46.0170638028273,23.4999834861371],[47.0169917202734,23.4999834861371],[48.0171637806145,23.4999834861371],[49.0170103170954,23.4999834861371],[50.0171823774366,23.4999834861371],[51.0170289139175,23.4999834861371],[52.0171195932936,23.4999834861371],[53.0170475107397,23.4999834861371],[54.0170568091507,23.4999834861371],[55.0170661075618,23.4999834861371],[56.0171567869378,23.4999834861371],[57.0170847043838,23.4999834861371],[58.0170940027948,23.4999834861371],[59.0171033012059,23.4999834861371],[60.0171125996169,23.4999834861371],[61.017121898028,23.4999834861371],[62.0170498154741,23.4999834861371],[63.0171404948501,23.4999834861371],[64.0171497932611,23.4999834861371],[65.0171590916722,23.4999834861371],[66.0170870091182,23.4999834861371],[67.0170149265642,23.4999834861371],[68.0170242249752,23.4999834861371],[69.0170335233863,23.4999834861371],[70.0170428217973,23.4999834861371],[71.0169707392433,23.4999834861371],[72.0171427995844,23.4999834861371],[73.0170707170305,23.4999834861371],[74.0170800154415,23.4999834861371],[75.0170893138526,23.4999834861371],[76.0170986122636,23.4999834861371],[77.0170265297096,23.4999834861371],[78.0169544471557,23.4999834861371],[79.0171265074967,23.4999834861371],[80.0170544249428,23.4999834861371],[81.0171451043189,23.4999834861371],[82.0170730217649,23.4999834861371],[83.0170823201759,23.4999834861371],[84.0170102376219,23.4999834861371],[85.017182297963,23.4999834861371],[86.017028834444,23.4999834861371],[87.0171195138201,23.4999834861371],[88.017047431266,23.4999834861371],[89.0170567296771,23.4999834861371],[90.0170660280881,23.4999834861371],[91.0169939455342,23.4999834861371],[92.0170846249102,23.4999834861371],[93.0170125423562,23.4999834861371],[94.0171032217323,23.4999834861371],[95.0171125201433,23.4999834861371],[96.0171218185544,23.4999834861371],[97.0170497360004,23.4999834861371],[98.0171404153765,23.4999834861371],[99.0169869518574,23.4999834861371],[100.016996250268,23.4999834861371],[101.01716831061,23.4999834861371],[102.017014847091,23.4999834861371],[103.017105526467,23.4999834861371],[104.017033443913,23.4999834861371],[105.017042742324,23.4999834861371],[106.017052040735,23.4999834861371],[107.017142720111,23.4999834861371],[108.017070637557,23.4999834861371],[109.016917174038,23.4999834861371],[110.017089234379,23.4999834861371],[111.017017151825,23.4999834861371],[112.017107831201,23.4999834861371],[113.017035748647,23.4999834861371],[114.017045047058,23.4999834861371],[115.016972964504,23.4999834861371],[116.017145024845,23.4999834861371],[117.017072942291,23.4999834861371],[118.017163621667,23.4999834861371],[119.017010158148,23.4999834861371],[120.017019456559,23.4999834861371],[121.01702875497,23.4999834861371],[122.016956672416,23.4999834861371],[123.017128732757,23.4999834861371],[124.017056650203,23.4999834861371],[125.017065948615,23.4999834861371],[126.017075247026,23.4999834861371],[127.017084545437,23.4999834861371],[128.017012462883,23.4999834861371],[129.017184523224,23.4999834861371],[130.017031059705,23.4999834861371],[131.016958977151,23.4999834861371],[132.017131037492,23.4999834861371],[133.016977573973,23.4999834861371],[134.017068253349,23.4999834861371],[135.016996170795,23.4999834861371],[136.017005469206,23.4999834861371],[137.017014767617,23.4999834861371],[138.017186827958,23.4999834861371],[139.017033364439,23.4999834861371],[140.017124043815,23.4999834861371],[141.017051961261,23.4999834861371],[142.016979878707,23.4999834861371],[143.017070558083,23.4999834861371],[144.016998475529,23.4999834861371],[145.017089154905,23.4999834861371],[146.017098453316,23.4999834861371],[147.017107751727,23.4999834861371],[148.017035669173,23.4999834861371],[149.017126348549,23.4999834861371],[150.017054265995,23.4999834861371],[151.017144945372,23.4999834861371],[152.016991481853,23.4999834861371],[153.016919399299,23.4999834861371],[154.01709145964,23.4999834861371],[155.017019377086,23.4999834861371],[156.017028675497,23.4999834861371],[157.017037973908,23.4999834861371],[158.017047272319,23.4999834861371],[159.016975189765,23.4999834861371],[160.017147250106,23.4999834861371],[161.017075167552,23.4999834861371],[162.017084465963,23.4999834861371],[163.017093764374,23.4999834861371],[164.016940300855,23.4999834861371],[165.017030980231,23.4999834861371],[166.016958897677,23.4999834861371],[167.017130958018,23.4999834861371],[168.016977494499,23.4999834861371],[169.01714955484,23.4999834861371],[170.016996091321,23.4999834861371],[171.017086770697,23.4999834861371],[172.017014688143,23.4999834861371],[173.017023986554,23.4999834861371],[174.017033284965,23.4999834861371],[175.016961202411,23.4999834861371],[176.017051881788,23.4999834861371],[177.017061180199,23.4999834861371],[178.01707047861,23.4999834861371],[178.957020624821,23.4999834861371],[179.999673548913,23.4999834861371]]},"properties":{"FID":2,"scalerank":2,"name":"Tropic of Cancer","name_long":"Tropic of Cancer","abbrev":"Tr. of Cancer","note":"Northern tropic, 23.4° N.","featurecla":"Circle of latitude","min_zoom":4.1,"wikidataid":"Q176635","name_ar":"مدار السرطان","name_bn":"কর্কটক্রান্তি","name_de":"Nördlicher Wendekreis","name_en":"Tropic of Cancer","name_es":"Trópico de Cáncer","name_fr":"Tropique du Cancer","name_el":"Τροπικός του Καρκίνου","name_hi":"कर्क रेखा","name_hu":"Ráktérítő","name_id":"Garis balik utara","name_it":"Tropico del Cancro","name_ja":"北回帰線","name_ko":"북회귀선","name_nl":"Kreeftskeerkring","name_pl":"zwrotnik Raka","name_pt":"Trópico de Câncer","name_ru":"Северный тропик","name_sv":"Kräftans vändkrets","name_tr":"Yengeç Dönencesi","name_vi":"Chí tuyến Bắc","name_zh":"北回归线","wdid_score":5,"ne_id":1159100209}},{"type":"Feature","id":3,"geometry":{"type":"LineString","coordinates":[[-179.999972832953,6.59400998314263E-06],[-179.999971045154,6.59401452497471E-06],[-178.999961746742,9.11637266382629E-06],[-177.999993138814,9.11637266382629E-06],[-176.999983840403,9.11637266382629E-06],[-175.999933851509,9.11637266382629E-06],[-174.999965243581,9.11637266382629E-06],[-173.99995594517,9.11637266382629E-06],[-172.999987337241,9.11637266382629E-06],[-171.99997803883,9.11637266382629E-06],[-170.999968740419,9.11637266382629E-06],[-169.999918751526,9.11637266382629E-06],[-168.99999083408,9.11637266382629E-06],[-167.999981535669,9.11637266382629E-06],[-166.999972237258,9.11637266382629E-06],[-165.999962938846,9.11637266382629E-06],[-164.999953640435,9.11637266382629E-06],[-163.999944342024,9.11637266382629E-06],[-162.999975734096,9.11637266382629E-06],[-161.999966435685,9.11637266382629E-06],[-161.000160589686,9.11637266382629E-06],[-160.999957137274,9.11637266382629E-06],[-159.999988529345,9.11637266382629E-06],[-159.000182683347,9.11637266382629E-06],[-159.000019921417,9.11637266382629E-06],[-157.999969932523,9.11637266382629E-06],[-156.999960634112,9.11637266382629E-06],[-155.999992026184,9.11637266382629E-06],[-154.999982727773,9.11637266382629E-06],[-153.999932738879,9.11637266382629E-06],[-153.692513013403,9.11637266382629E-06],[-153.000004821433,9.11637266382629E-06],[-151.999995523022,9.11637266382629E-06],[-150.999986224611,9.11637266382629E-06],[-149.9999769262,9.11637266382629E-06],[-149.000008318271,9.11637266382629E-06],[-147.99999901986,9.11637266382629E-06],[-146.999989721449,9.11637266382629E-06],[-145.999980423038,9.11637266382629E-06],[-144.999971124627,9.11637266382629E-06],[-143.999961826216,9.11637266382629E-06],[-142.999993218288,9.11637266382629E-06],[-141.999983919877,9.11637266382629E-06],[-140.999974621465,9.11637266382629E-06],[-139.999965323054,9.11637266382629E-06],[-138.999996715126,9.11637266382629E-06],[-137.999987416715,9.11637266382629E-06],[-137.000018808786,9.11637266382629E-06],[-136.000009510375,9.11637266382629E-06],[-135.000000211964,9.11637266382629E-06],[-133.999990913553,9.11637266382629E-06],[-132.999981615142,9.11637266382629E-06],[-132.000013007214,9.11637266382629E-06],[-131.000003708803,9.11637266382629E-06],[-129.999994410392,9.11637266382629E-06],[-128.99998511198,9.11637266382629E-06],[-128.000016504052,9.11637266382629E-06],[-127.000007205641,9.11637266382629E-06],[-125.99999790723,9.11637266382629E-06],[-124.999988608819,9.11637266382629E-06],[-123.999979310408,9.11637266382629E-06],[-122.999970011997,9.11637266382629E-06],[-121.999960713586,9.11637266382629E-06],[-120.999992105657,9.11637266382629E-06],[-120.000023497729,9.11637266382629E-06],[-119.000014199318,9.11637266382629E-06],[-118.000004900907,9.11637266382629E-06],[-116.999995602496,9.11637266382629E-06],[-115.999986304085,9.11637266382629E-06],[-115.000017696156,9.11637266382629E-06],[-113.999967707262,9.11637266382629E-06],[-112.999999099334,9.11637266382629E-06],[-111.99994911044,9.11637266382629E-06],[-111.000021192994,9.11637266382629E-06],[-110.000011894583,9.11637266382629E-06],[-109.000002596172,9.11637266382629E-06],[-107.999993297761,9.11637266382629E-06],[-107.000024689833,9.11637266382629E-06],[-106.000015391422,9.11637266382629E-06],[-105.000006093011,9.11637266382629E-06],[-104.000037485082,9.11637266382629E-06],[-103.000028186671,9.11637266382629E-06],[-101.999978197777,9.11637266382629E-06],[-100.999968899366,9.11637266382629E-06],[-100.000000291438,9.11637266382629E-06],[-98.9999909930268,9.11637266382629E-06],[-98.0000223850983,9.11637266382629E-06],[-97.0000537771697,9.11637266382629E-06],[-96.0000444787587,9.11637266382629E-06],[-95.0000351803477,9.11637266382629E-06],[-94.0000258819366,9.11637266382629E-06],[-93.0000165835256,9.11637266382629E-06],[-92.0000072851146,9.11637266382629E-06],[-90.9999979867035,9.11637266382629E-06],[-90.000029378775,9.11637266382629E-06],[-89.0000200803639,9.11637266382629E-06],[-88.000010781953,9.11637266382629E-06],[-87.0000014835419,9.11637266382629E-06],[-86.0000328756133,9.11637266382629E-06],[-85.0000235772023,9.11637266382629E-06],[-84.0000142787912,9.11637266382629E-06],[-83.0000049803802,9.11637266382629E-06],[-82.0000363724517,9.11637266382629E-06],[-80.9999863835581,9.11637266382629E-06],[-80.0000177756296,9.11637266382629E-06],[-79.0000084772185,9.11637266382629E-06],[-77.9999991788075,9.11637266382629E-06],[-77.0000305708789,9.11637266382629E-06],[-76.0000619629504,9.11637266382629E-06],[-75.0000526645394,9.11637266382629E-06],[-74.0000026756459,9.11637266382629E-06],[-73.0000340677173,9.11637266382629E-06],[-72.0000247693062,9.11637266382629E-06],[-71.0000154708952,9.11637266382629E-06],[-70.0000061724841,9.11637266382629E-06],[-69.0000782550381,9.11637266382629E-06],[-68.0000282661446,9.11637266382629E-06],[-67.0000189677335,9.11637266382629E-06],[-66.0000096693225,9.11637266382629E-06],[-65.0000817518765,9.11637266382629E-06],[-64.000031762983,9.11637266382629E-06],[-62.9999817740893,9.11637266382629E-06],[-62.0000538566433,9.11637266382629E-06],[-61.0000038677498,9.11637266382629E-06],[-60.0000352598213,9.11637266382629E-06],[-59.0000259614103,9.11637266382629E-06],[-58.0000573534817,9.11637266382629E-06],[-57.0000073645882,9.11637266382629E-06],[-55.9999980661771,9.11637266382629E-06],[-55.0000701487311,9.11637266382629E-06],[-54.0000608503201,9.11637266382629E-06],[-53.000051551909,9.11637266382629E-06],[-52.000042253498,9.11637266382629E-06],[-51.0000329550869,9.11637266382629E-06],[-50.0000236566759,9.11637266382629E-06],[-49.0000143582648,9.11637266382629E-06],[-48.0000457503363,9.11637266382629E-06],[-47.0000364519253,9.11637266382629E-06],[-45.9999864630317,9.11637266382629E-06],[-45.0000585455857,9.11637266382629E-06],[-44.0000492471747,9.11637266382629E-06],[-43.0000399487636,9.11637266382629E-06],[-42.0000306503526,9.11637266382629E-06],[-41.0000213519415,9.11637266382629E-06],[-40.0000120535305,9.11637266382629E-06],[-39.0000027551194,9.11637266382629E-06],[-38.0000748376734,9.11637266382629E-06],[-37.0000655392624,9.11637266382629E-06],[-36.0000562408513,9.11637266382629E-06],[-35.0000062519578,9.11637266382629E-06],[-34.0001190249943,9.11637266382629E-06],[-33.0001097265832,9.11637266382629E-06],[-32.0001004281722,9.11637266382629E-06],[-31.0000911297611,9.11637266382629E-06],[-30.0000818313501,9.11637266382629E-06],[-28.999991151974,9.11637266382629E-06],[-28.0000632345281,9.11637266382629E-06],[-27.000053936117,9.11637266382629E-06],[-26.0000446377059,9.11637266382629E-06],[-25.0000353392949,9.11637266382629E-06],[-24.0000260408838,9.11637266382629E-06],[-23.0000574329553,9.11637266382629E-06],[-22.0000888250268,9.11637266382629E-06],[-21.0000795266157,9.11637266382629E-06],[-20.0000295377222,9.11637266382629E-06],[-19.0000609297936,9.11637266382629E-06],[-18.0000516313826,9.11637266382629E-06],[-17.000001642489,9.11637266382629E-06],[-16.000073725043,9.11637266382629E-06],[-15.000064426632,9.11637266382629E-06],[-14.0000958187034,9.11637266382629E-06],[-13.0000458298099,9.11637266382629E-06],[-12.0000772218814,9.11637266382629E-06],[-11.0000679234703,9.11637266382629E-06],[-10.0000586250593,9.11637266382629E-06],[-9.0000493266482,9.11637266382629E-06],[-8.00004002823721,9.11637266382629E-06],[-7.00003072982611,9.11637266382629E-06],[-6.00010281238011,9.11637266382629E-06],[-5.00001213300402,9.11637266382629E-06],[-4.00016559652309,9.11637266382629E-06],[-3.00003422666447,9.11637266382629E-06],[-2.00010630921847,9.11637266382629E-06],[-1.00005632032494,9.11637266382629E-06],[-0.00016909336147819,9.11637266382629E-06],[0.999962276497143,9.11637266382629E-06],[1.99989019394315,9.11637266382629E-06],[2.99998087331923,9.11637266382629E-06],[3.99990879076523,9.11637266382629E-06],[4.99983670821126,9.11637266382629E-06],[5.99984600662233,9.11637266382629E-06],[6.99985530503332,9.11637266382629E-06],[7.99994598440949,9.11637266382629E-06],[8.99979252089042,9.11637266382629E-06],[9.99996458123158,9.11637266382629E-06],[10.9998924986776,9.11637266382629E-06],[11.9999017970886,9.11637266382629E-06],[12.9998297145346,9.11637266382629E-06],[14.0000017748758,9.11637266382629E-06],[14.9998483113567,9.11637266382629E-06],[15.9997762288027,9.11637266382629E-06],[16.9999482891438,9.11637266382629E-06],[17.9998762065898,9.11637266382629E-06],[18.9998855050009,9.11637266382629E-06],[19.9998134224469,9.11637266382629E-06],[20.9999041018229,9.11637266382629E-06],[21.999832019269,9.11637266382629E-06],[23.0000040796101,9.11637266382629E-06],[23.9999319970561,9.11637266382629E-06],[25.0000226764322,9.11637266382629E-06],[25.9998692129131,9.11637266382629E-06],[26.9998785113242,9.11637266382629E-06],[27.9998878097352,9.11637266382629E-06],[28.9998157271812,9.11637266382629E-06],[29.9999877875224,9.11637266382629E-06],[30.9997529430383,9.11637266382629E-06],[31.9999250033794,9.11637266382629E-06],[32.9998529208255,9.11637266382629E-06],[33.9998622192365,9.11637266382629E-06],[34.9998715176476,9.11637266382629E-06],[35.9997994350935,9.11637266382629E-06],[36.9998087335045,9.11637266382629E-06],[37.9998180319156,9.11637266382629E-06],[38.9999087112917,9.11637266382629E-06],[39.9998366287377,9.11637266382629E-06],[40.9999273081138,9.11637266382629E-06],[41.9998552255598,9.11637266382629E-06],[42.9998645239708,9.11637266382629E-06],[43.9998738223819,9.11637266382629E-06],[44.9999645017579,9.11637266382629E-06],[45.999892419204,9.11637266382629E-06],[46.9997389556849,9.11637266382629E-06],[47.9999110160261,9.11637266382629E-06],[48.999838933472,9.11637266382629E-06],[49.9998482318831,9.11637266382629E-06],[50.9997761493291,9.11637266382629E-06],[51.9999482096702,9.11637266382629E-06],[52.9997947461511,9.11637266382629E-06],[53.9999668064923,9.11637266382629E-06],[54.9998947239382,9.11637266382629E-06],[55.9998226413843,9.11637266382629E-06],[56.9998319397953,9.11637266382629E-06],[57.9998412382064,9.11637266382629E-06],[58.9998505366175,9.11637266382629E-06],[59.9997784540634,9.11637266382629E-06],[60.9999505144046,9.11637266382629E-06],[61.9998784318506,9.11637266382629E-06],[62.9998877302617,9.11637266382629E-06],[63.9998156477077,9.11637266382629E-06],[64.9999063270837,9.11637266382629E-06],[65.9998342445298,9.11637266382629E-06],[66.9997621619757,9.11637266382629E-06],[67.9999342223169,9.11637266382629E-06],[68.9997807587978,9.11637266382629E-06],[69.9998714381739,9.11637266382629E-06],[70.9997993556198,9.11637266382629E-06],[71.999890034996,9.11637266382629E-06],[72.9998179524419,9.11637266382629E-06],[73.999827250853,9.11637266382629E-06],[74.999836549264,9.11637266382629E-06],[75.9999272286402,9.11637266382629E-06],[76.9998551460861,9.11637266382629E-06],[77.9998644444973,9.11637266382629E-06],[78.9998737429082,9.11637266382629E-06],[79.9998016603543,9.11637266382629E-06],[80.9998923397303,9.11637266382629E-06],[81.9997388762113,9.11637266382629E-06],[82.9999109365524,9.11637266382629E-06],[83.9997574730334,9.11637266382629E-06],[84.9999295333745,9.11637266382629E-06],[85.9998574508205,9.11637266382629E-06],[86.9998667492316,9.11637266382629E-06],[87.9997946666775,9.11637266382629E-06],[88.9998039650886,9.11637266382629E-06],[89.9998132634996,9.11637266382629E-06],[90.9997411809456,9.11637266382629E-06],[91.9999132412868,9.11637266382629E-06],[92.9998411587328,9.11637266382629E-06],[93.9998504571438,9.11637266382629E-06],[94.9998597555549,9.11637266382629E-06],[95.9999504349309,9.11637266382629E-06],[96.9997969714119,9.11637266382629E-06],[97.999969031753,9.11637266382629E-06],[98.999896949199,9.11637266382629E-06],[99.9998248666451,9.11637266382629E-06],[100.999834165056,9.11637266382629E-06],[101.999762082502,9.11637266382629E-06],[102.999852761878,9.11637266382629E-06],[103.999780679324,9.11637266382629E-06],[104.999952739665,9.11637266382629E-06],[105.999880657111,9.11637266382629E-06],[106.999889955522,9.11637266382629E-06],[107.999817872968,9.11637266382629E-06],[108.99982717138,9.11637266382629E-06],[109.99983646979,9.11637266382629E-06],[110.999764387236,9.11637266382629E-06],[111.999936447578,9.11637266382629E-06],[112.999701603093,9.11637266382629E-06],[113.999873663435,9.11637266382629E-06],[114.999882961846,9.11637266382629E-06],[115.999892260257,9.11637266382629E-06],[116.999820177703,9.11637266382629E-06],[117.999829476114,9.11637266382629E-06],[118.99975739356,9.11637266382629E-06],[119.999766691971,9.11637266382629E-06],[120.999857371347,9.11637266382629E-06],[121.999785288793,9.11637266382629E-06],[122.999875968169,9.11637266382629E-06],[123.999803885615,9.11637266382629E-06],[124.999813184026,9.11637266382629E-06],[125.999822482437,9.11637266382629E-06],[126.999913161813,9.11637266382629E-06],[127.999841079259,9.11637266382629E-06],[128.999931758635,9.11637266382629E-06],[129.999859676081,9.11637266382629E-06],[130.999787593527,9.11637266382629E-06],[131.999878272903,9.11637266382629E-06],[132.999724809384,9.11637266382629E-06],[133.99981548876,9.11637266382629E-06],[134.999743406206,9.11637266382629E-06],[135.999915466548,9.11637266382629E-06],[136.999843383994,9.11637266382629E-06],[137.999852682405,9.11637266382629E-06],[138.999780599851,9.11637266382629E-06],[139.999871279227,9.11637266382629E-06],[140.999799196673,9.11637266382629E-06],[141.999727114119,9.11637266382629E-06],[142.99989917446,9.11637266382629E-06],[143.999827091906,9.11637266382629E-06],[144.999836390317,9.11637266382629E-06],[145.999845688728,9.11637266382629E-06],[146.999854987139,9.11637266382629E-06],[147.999782904585,9.11637266382629E-06],[148.999954964926,9.11637266382629E-06],[149.999720120442,9.11637266382629E-06],[150.999892180783,9.11637266382629E-06],[151.999820098229,9.11637266382629E-06],[152.999748015675,9.11637266382629E-06],[153.999838695051,9.11637266382629E-06],[154.999766612497,9.11637266382629E-06],[155.999775910908,9.11637266382629E-06],[156.999785209319,9.11637266382629E-06],[157.999875888695,9.11637266382629E-06],[158.999803806141,9.11637266382629E-06],[159.999894485518,9.11637266382629E-06],[160.999822402964,9.11637266382629E-06],[161.999831701375,9.11637266382629E-06],[162.999840999786,9.11637266382629E-06],[163.999687536267,9.11637266382629E-06],[164.999859596608,9.11637266382629E-06],[165.999706133089,9.11637266382629E-06],[166.99987819343,9.11637266382629E-06],[167.999806110876,9.11637266382629E-06],[168.999896790252,9.11637266382629E-06],[169.999743326733,9.11637266382629E-06],[170.999915387074,9.11637266382629E-06],[171.999761923555,9.11637266382629E-06],[172.999689841001,9.11637266382629E-06],[173.999861901342,9.11637266382629E-06],[174.999789818788,9.11637266382629E-06],[175.999799117199,9.11637266382629E-06],[176.99980841561,9.11637266382629E-06],[177.999817714021,9.11637266382629E-06],[178.999745631467,9.11637266382629E-06],[179.999673548913,9.11637266382629E-06]]},"properties":{"FID":3,"scalerank":0,"name":"Equator","name_long":"Equator","abbrev":"Equator","note":"An imaginary line equidistant from the north and south poles","featurecla":"Circle of latitude","min_zoom":4,"wikidataid":"Q23538","name_ar":"خط الاستواء","name_bn":"নিরক্ষরেখা","name_de":"Äquator","name_en":"equator","name_es":"Ecuador terrestre","name_fr":"équateur terrestre","name_el":"Ισημερινός","name_hi":"भूमध्य रेखा","name_hu":"Egyenlítő","name_id":"Khatulistiwa","name_it":"equatore","name_ja":"赤道","name_ko":"적도","name_nl":"evenaar","name_pl":"równik","name_pt":"Linha do equador","name_ru":"Экватор","name_sv":"Ekvator","name_tr":"Ekvator","name_vi":"Xích đạo","name_zh":"赤道","wdid_score":5,"ne_id":1159100211}},{"type":"Feature","id":4,"geometry":{"type":"LineString","coordinates":[[179.999988540844,66.549985241201],[178.962880054304,66.5499850160039],[178.022848527127,66.5499850160039],[177.022757847752,66.5499850160039],[176.02274854934,66.5499850160039],[175.022739250929,66.5499850160039],[174.022811333483,66.5499850160039],[173.022720654107,66.5499850160039],[172.022792736661,66.5499850160039],[171.022864819215,66.5499850160039],[170.022692758874,66.5499850160039],[169.022846222393,66.5499850160039],[168.022755543017,66.5499850160039],[167.022827625571,66.5499850160039],[166.02281832716,66.5499850160039],[165.022809028749,66.5499850160039],[164.022636968408,66.5499850160039],[163.022790431927,66.5499850160039],[162.022943895446,66.5499850160039],[161.022771835105,66.5499850160039],[160.022843917659,66.5499850160039],[159.022753238283,66.5499850160039],[158.022825320837,66.5499850160039],[157.022816022426,66.5499850160039],[156.02288810498,66.5499850160039],[155.022716044639,66.5499850160039],[154.022788127192,66.5499850160039],[153.022697447816,66.5499850160039],[152.02276953037,66.5499850160039],[151.022841612924,66.5499850160039],[150.022832314513,66.5499850160039],[149.022823016102,66.5499850160039],[148.022732336726,66.5499850160039],[147.02280441928,66.5499850160039],[146.022795120869,66.5499850160039],[145.022785822458,66.5499850160039],[144.022776524047,66.5499850160039],[143.022848606601,66.5499850160039],[142.02267654626,66.5499850160039],[141.022830009779,66.5499850160039],[140.022902092333,66.5499850160039],[139.022730031992,66.5499850160039],[138.022802114546,66.5499850160039],[137.022792816135,66.5499850160039],[136.022864898689,66.5499850160039],[135.022774219313,66.5499850160039],[134.022846301867,66.5499850160039],[133.022674241526,66.5499850160039],[132.02274632408,66.5499850160039],[131.022737025669,66.5499850160039],[130.022809108223,66.5499850160039],[129.022881190776,66.5499850160039],[128.0227905114,66.5499850160039],[127.022862593954,66.5499850160039],[126.022771914578,66.5499850160039],[125.022925378097,66.5499850160039],[124.022753317756,66.5499850160039],[123.02282540031,66.5499850160039],[122.022734720934,66.5499850160039],[121.022806803488,66.5499850160039],[120.022716124112,66.5499850160039],[119.022869587631,66.5499850160039],[118.02286028922,66.5499850160039],[117.022769609844,66.5499850160039],[116.022841692398,66.5499850160039],[115.022751013022,66.5499850160039],[114.022823095576,66.5499850160039],[113.022813797165,66.5499850160039],[112.022885879719,66.5499850160039],[111.022713819378,66.5499850160039],[110.022785901932,66.5499850160039],[109.022776603521,66.5499850160039],[108.02276730511,66.5499850160039],[107.022839387664,66.5499850160039],[106.022830089253,66.5499850160039],[105.022902171807,66.5499850160039],[104.022730111466,66.5499850160039],[103.022883574984,66.5499850160039],[102.022711514643,66.5499850160039],[101.022783597197,66.5499850160039],[100.022774298786,66.5499850160039],[99.0228463813403,66.5499850160039],[98.0228370829293,66.5499850160039],[97.0228277845182,66.5499850160039],[96.0228998670723,66.5499850160039],[95.0228091876961,66.5499850160039],[94.0227998892851,66.5499850160039],[93.022790590874,66.5499850160039],[92.0228626734281,66.5499850160039],[91.0227719940519,66.5499850160039],[90.022844076606,66.5499850160039],[89.0227533972299,66.5499850160039],[88.0227440988188,66.5499850160039],[87.0228161813729,66.5499850160039],[86.0228068829619,66.5499850160039],[85.0228789655159,66.5499850160039],[84.0227882861398,66.5499850160039],[83.0228603686938,66.5499850160039],[82.0226883083526,66.5499850160039],[81.0228417718717,66.5499850160039],[80.0227510924956,66.5499850160039],[79.0228231750496,66.5499850160039],[78.0227324956735,66.5499850160039],[77.0228045782275,66.5499850160039],[76.0228766607814,66.5499850160039],[75.0228673623704,66.5499850160039],[74.0229394449244,66.5499850160039],[73.0227673845833,66.5499850160039],[72.0228394671372,66.5499850160039],[71.0227487877612,66.5499850160039],[70.0228208703151,66.5499850160039],[69.0228115719042,66.5499850160039],[68.0228836544581,66.5499850160039],[67.022711594117,66.5499850160039],[66.0227022957059,66.5499850160039],[65.0229371401901,66.5499850160039],[64.0227650798489,66.5499850160039],[63.0228371624029,66.5499850160039],[62.0228278639918,66.5499850160039],[61.0228185655808,66.5499850160039],[60.0227278862047,66.5499850160039],[59.0228813497238,66.5499850160039],[58.0227906703476,66.5499850160039],[57.0228627529017,66.5499850160039],[56.0228534544906,66.5499850160039],[55.0228441560796,66.5499850160039],[54.0229162386335,66.5499850160039],[53.0228255592575,66.5499850160039],[52.0228976418115,66.5499850160039],[51.0227255814704,66.5499850160039],[50.0227976640243,66.5499850160039],[49.0227883656133,66.5499850160039],[48.0228604481673,66.5499850160039],[47.0227697687912,66.5499850160039],[46.0228418513452,66.5499850160039],[45.0229139338992,66.5499850160039],[44.022741873558,66.5499850160039],[43.0229767180422,66.5499850160039],[42.022804657701,66.5499850160039],[41.0228767402551,66.5499850160039],[40.0227860608789,66.5499850160039],[39.0227767624679,66.5499850160039],[38.0228488450219,66.5499850160039],[37.0229209275759,66.5499850160039],[36.0227488672348,66.5499850160039],[35.0229023307539,66.5499850160039],[34.0228930323427,66.5499850160039],[33.0228023529667,66.5499850160039],[32.0228744355206,66.5499850160039],[31.0228651371097,66.5499850160039],[30.0229372196636,66.5499850160039],[29.0227651593225,66.5499850160039],[28.0228372418765,66.5499850160039],[27.0227465625004,66.5499850160039],[26.0228186450544,66.5499850160039],[25.0228907276084,66.5499850160039],[24.0228814291973,66.5499850160039],[23.0229535117513,66.5499850160039],[22.0227814514103,66.5499850160039],[21.0229349149292,66.5499850160039],[20.0227628545882,66.5499850160039],[19.0228349371422,66.5499850160039],[18.0228256387311,66.5499850160039],[17.0228977212851,66.5499850160039],[16.022807041909,66.5499850160039],[15.022879124463,66.5499850160039],[14.022951207017,66.5499850160039],[13.0227791466758,66.5499850160039],[12.0228512292299,66.5499850160039],[11.0228419308188,66.5499850160039],[10.0228326324077,66.5499850160039],[9.02282333399674,66.5499850160039],[8.02289541655074,66.5499850160039],[7.02280473717465,66.5499850160039],[6.02279543876355,66.5499850160039],[5.02278614035257,66.5499850160039],[4.02285822290656,66.5499850160039],[3.02293030546056,66.5499850160039],[2.02283962608448,66.5499850160039],[1.02291170863847,66.5499850160039],[0.0228210292623885,66.5499850160039],[-0.977351031078768,66.5499850160039],[-1.97736032948984,66.5499850160039],[-2.97728824693587,66.5499850160039],[-3.97729754534686,66.5499850160039],[-4.97730684375793,66.5499850160039],[-5.97731614216894,66.5499850160039],[-6.97724405961495,66.5499850160039],[-7.97725335802605,66.5499850160039],[-8.97730334691957,66.5499850160039],[-9.9772719548481,66.5499850160039],[-10.9772812532591,66.5499850160039],[-11.9773312421527,66.5499850160039],[-12.9772998500812,66.5499850160039],[-13.9773091484923,66.5499850160039],[-14.9773591373858,66.5499850160039],[-15.9772463643493,66.5499850160039],[-16.9772556627604,66.5499850160039],[-17.9772649611714,66.5499850160039],[-18.9772742595825,66.5499850160039],[-19.977242867511,66.5499850160039],[-20.9772928564045,66.5499850160039],[-21.9773021548156,66.5499850160039],[-22.9773114532266,66.5499850160039],[-23.9772800611552,66.5499850160039],[-24.9772079786012,66.5499850160039],[-25.9772986579773,66.5499850160039],[-26.9772265754233,66.5499850160039],[-27.9772765643168,66.5499850160039],[-28.9772858627279,66.5499850160039],[-29.9772544706564,66.5499850160039],[-30.9772637690674,66.5499850160039],[-31.9772730674785,66.5499850160039],[-32.9772823658895,66.5499850160039],[-33.9773323547831,66.5499850160039],[-34.9773009627116,66.5499850160039],[-35.9771881896751,66.5499850160039],[-36.9772788690512,66.5499850160039],[-37.9772474769797,66.5499850160039],[-38.9772567753908,66.5499850160039],[-39.9772660738018,66.5499850160039],[-40.9772753722129,66.5499850160039],[-41.9772439801413,66.5499850160039],[-42.9772532785524,66.5499850160039],[-43.9772625769634,66.5499850160039],[-44.977312565857,66.5499850160039],[-45.9771997928205,66.5499850160039],[-46.9772904721966,66.5499850160039],[-47.9772183896426,66.5499850160039],[-48.9772276880537,66.5499850160039],[-49.9772369864647,66.5499850160039],[-50.9772462848758,66.5499850160039],[-51.9772555832868,66.5499850160039],[-52.9772648816978,66.5499850160039],[-53.9772741801089,66.5499850160039],[-54.9772834785199,66.5499850160039],[-55.9772927769309,66.5499850160039],[-56.9772206943769,66.5499850160039],[-57.977311373753,66.5499850160039],[-58.977239291199,66.5499850160039],[-59.9772485896101,66.5499850160039],[-60.9772578880211,66.5499850160039],[-61.9772671864322,66.5499850160039],[-62.9772764848432,66.5499850160039],[-63.9772450927717,66.5499850160039],[-64.9772543911828,66.5499850160039],[-65.9772229991113,66.5499850160039],[-66.9773136784873,66.5499850160039],[-67.9772009054509,66.5499850160039],[-68.9773322753095,66.5499850160039],[-69.977219502273,66.5499850160039],[-70.977228800684,66.5499850160039],[-71.9772787895775,66.5499850160039],[-72.9772880879886,66.5499850160039],[-73.9772566959172,66.5499850160039],[-74.9772659943281,66.5499850160039],[-75.9772752927393,66.5499850160039],[-76.9772032101853,66.5499850160039],[-77.9772938895613,66.5499850160039],[-78.9772218070074,66.5499850160039],[-79.9773124863834,66.5499850160039],[-80.9771997133469,66.5499850160039],[-81.9772497022404,66.5499850160039],[-82.9772590006515,66.5499850160039],[-83.9772276085801,66.5499850160039],[-84.9772369069911,66.5499850160039],[-85.9772868958846,66.5499850160039],[-86.9772555038131,66.5499850160039],[-87.9771834212592,66.5499850160039],[-88.9772741006352,66.5499850160039],[-89.9772020180812,66.5499850160039],[-90.9772113164923,66.5499850160039],[-91.9772206149033,66.5499850160039],[-92.9772299133144,66.5499850160039],[-93.9772392117254,66.5499850160039],[-94.977289200619,66.5499850160039],[-95.9772578085475,66.5499850160039],[-96.9772671069586,66.5499850160039],[-97.9772764053696,66.5499850160039],[-98.9772043228157,66.5499850160039],[-99.9772950021917,66.5499850160039],[-100.977222919638,66.5499850160039],[-101.977232218049,66.5499850160039],[-102.97724151646,66.5499850160039],[-103.977250814871,66.5499850160039],[-104.977219422799,66.5499850160039],[-105.977269411693,66.5499850160039],[-106.977238019621,66.5499850160039],[-107.977165937067,66.5499850160039],[-108.977256616444,66.5499850160039],[-109.977225224372,66.5499850160039],[-110.977275213266,66.5499850160039],[-111.977203130712,66.5499850160039],[-112.977253119605,66.5499850160039],[-113.977221727534,66.5499850160039],[-114.977231025945,66.5499850160039],[-115.977240324356,66.5499850160039],[-116.977290313249,66.5499850160039],[-117.977218230695,66.5499850160039],[-118.977146148141,66.5499850160039],[-119.977277518,66.5499850160039],[-120.977205435446,66.5499850160039],[-121.977214733857,66.5499850160039],[-122.977224032268,66.5499850160039],[-123.977192640197,66.5499850160039],[-124.977201938608,66.5499850160039],[-125.977211237019,66.5499850160039],[-126.97722053543,66.5499850160039],[-127.977270524323,66.5499850160039],[-128.977239132252,66.5499850160039],[-129.977167049698,66.5499850160039],[-130.977257729074,66.5499850160039],[-131.97718564652,66.5499850160039],[-132.977194944931,66.5499850160039],[-133.977204243342,66.5499850160039],[-134.977213541753,66.5499850160039],[-135.977222840164,66.5499850160039],[-136.977232138575,66.5499850160039],[-137.977241436986,66.5499850160039],[-138.97729142588,66.5499850160039],[-139.977260033808,66.5499850160039],[-140.977187951254,66.5499850160039],[-141.97727863063,66.5499850160039],[-142.977165857594,66.5499850160039],[-143.977215846487,66.5499850160039],[-144.977184454416,66.5499850160039],[-145.977193752827,66.5499850160039],[-146.977203051238,66.5499850160039],[-147.977212349649,66.5499850160039],[-148.97722164806,66.5499850160039],[-149.977190255989,66.5499850160039],[-150.977240244882,66.5499850160039],[-151.977168162328,66.5499850160039],[-152.977258841704,66.5499850160039],[-153.97718675915,66.5499850160039],[-154.977196057561,66.5499850160039],[-155.977205355972,66.5499850160039],[-156.977214654383,66.5499850160039],[-157.977183262312,66.5499850160039],[-158.977233251206,66.5499850160039],[-159.977242549617,66.5499850160039],[-160.977170467063,66.5499850160039],[-161.977220455956,66.5499850160039],[-162.977189063885,66.5499850160039],[-163.977157671813,66.5499850160039],[-164.977166970224,66.5499850160039],[-165.977216959118,66.5499850160039],[-166.977185567046,66.5499850160039],[-167.977194865457,66.5499850160039],[-168.973826853819,66.5499850160039],[-168.977244854351,66.5499850160039],[-169.977132081314,66.5499850160039],[-170.97722276069,66.5499850160039],[-171.977150678137,66.5499850160039],[-172.977241357513,66.5499850160039],[-173.977169274959,66.5499850160039],[-174.97717857337,66.5499850160039],[-175.977187871781,66.5499850160039],[-176.977197170192,66.5499850160039],[-177.977206468603,66.5499850160039],[-178.977215767014,66.5499850160039],[-179.999988540844,66.5499850160039]]},"properties":{"FID":4,"scalerank":2,"name":"Arctic Circle","name_long":"Arctic Circle","abbrev":"Arctic Cir.","note":"Northern polar circle, 66.5° N.","featurecla":"Circle of latitude","min_zoom":4.1,"wikidataid":"Q176609","name_ar":"الدائرة القطبية الشمالية","name_bn":"উত্তর মেরুবৃত্ত","name_de":"nördlicher Polarkreis","name_en":"Arctic Circle","name_es":"Círculo polar ártico","name_fr":"Cercle Arctique","name_el":"Αρκτικός Κύκλος","name_hi":"आर्कटिक रेखा","name_hu":"északi sarkkör","name_id":"Lingkar Arktik","name_it":"Circolo polare artico","name_ja":"北極圏","name_ko":"북극권","name_nl":"Noordpoolcirkel","name_pl":"północne koło podbiegunowe","name_pt":"Círculo Polar Ártico","name_ru":"Северный полярный круг","name_sv":"Norra polcirkeln","name_tr":"Kuzey Kutup Dairesi","name_vi":"Vòng Bắc Cực","name_zh":"北極圈","wdid_score":5,"ne_id":1159100213}},{"type":"Feature","id":5,"geometry":{"type":"LineString","coordinates":[[179.999673548913,-66.5499260927761],[178.962880054304,-66.5499260927761],[178.022848527127,-66.5499260927761],[177.022757847752,-66.5499260927761],[176.02274854934,-66.5499260927761],[175.022739250929,-66.5499260927761],[174.022811333483,-66.5499260927761],[173.022720654107,-66.5499260927761],[172.022792736661,-66.5499260927761],[171.022864819215,-66.5499260927761],[170.022692758874,-66.5499260927761],[169.022846222393,-66.5499260927761],[168.022755543017,-66.5499260927761],[167.022827625571,-66.5499260927761],[166.02281832716,-66.5499260927761],[165.022809028749,-66.5499260927761],[164.022636968408,-66.5499260927761],[163.022790431927,-66.5499260927761],[162.022943895446,-66.5499260927761],[161.022771835105,-66.5499260927761],[160.022843917659,-66.5499260927761],[159.022753238283,-66.5499260927761],[158.022825320837,-66.5499260927761],[157.022816022426,-66.5499260927761],[156.02288810498,-66.5499260927761],[155.022716044639,-66.5499260927761],[154.022788127192,-66.5499260927761],[153.022697447816,-66.5499260927761],[152.02276953037,-66.5499260927761],[151.022841612924,-66.5499260927761],[150.022832314513,-66.5499260927761],[149.022823016102,-66.5499260927761],[148.022732336726,-66.5499260927761],[147.02280441928,-66.5499260927761],[146.022795120869,-66.5499260927761],[145.022785822458,-66.5499260927761],[144.022776524047,-66.5499260927761],[143.022848606601,-66.5499260927761],[142.02267654626,-66.5499260927761],[141.022830009779,-66.5499260927761],[140.022902092333,-66.5499260927761],[139.022730031992,-66.5499260927761],[138.022802114546,-66.5499260927761],[137.022792816135,-66.5499260927761],[136.022864898689,-66.5499260927761],[135.022774219313,-66.5499260927761],[134.022846301867,-66.5499260927761],[133.022674241526,-66.5499260927761],[132.02274632408,-66.5499260927761],[131.022737025669,-66.5499260927761],[130.022809108223,-66.5499260927761],[129.022881190776,-66.5499260927761],[128.0227905114,-66.5499260927761],[127.022862593954,-66.5499260927761],[126.022771914578,-66.5499260927761],[125.022925378097,-66.5499260927761],[124.022753317756,-66.5499260927761],[123.02282540031,-66.5499260927761],[122.022734720934,-66.5499260927761],[121.022806803488,-66.5499260927761],[120.022716124112,-66.5499260927761],[119.022869587631,-66.5499260927761],[118.02286028922,-66.5499260927761],[117.022769609844,-66.5499260927761],[116.022841692398,-66.5499260927761],[115.022751013022,-66.5499260927761],[114.022823095576,-66.5499260927761],[113.022813797165,-66.5499260927761],[112.022885879719,-66.5499260927761],[111.022713819378,-66.5499260927761],[110.022785901932,-66.5499260927761],[109.022776603521,-66.5499260927761],[108.02276730511,-66.5499260927761],[107.022839387664,-66.5499260927761],[106.022830089253,-66.5499260927761],[105.022902171807,-66.5499260927761],[104.022730111466,-66.5499260927761],[103.022883574984,-66.5499260927761],[102.022711514643,-66.5499260927761],[101.022783597197,-66.5499260927761],[100.022774298786,-66.5499260927761],[99.0228463813403,-66.5499260927761],[98.0228370829293,-66.5499260927761],[97.0228277845182,-66.5499260927761],[96.0228998670723,-66.5499260927761],[95.0228091876961,-66.5499260927761],[94.0227998892851,-66.5499260927761],[93.022790590874,-66.5499260927761],[92.0228626734281,-66.5499260927761],[91.0227719940519,-66.5499260927761],[90.022844076606,-66.5499260927761],[89.0227533972299,-66.5499260927761],[88.0227440988188,-66.5499260927761],[87.0228161813729,-66.5499260927761],[86.0228068829619,-66.5499260927761],[85.0228789655159,-66.5499260927761],[84.0227882861398,-66.5499260927761],[83.0228603686938,-66.5499260927761],[82.0226883083526,-66.5499260927761],[81.0228417718717,-66.5499260927761],[80.0227510924956,-66.5499260927761],[79.0228231750496,-66.5499260927761],[78.0227324956735,-66.5499260927761],[77.0228045782275,-66.5499260927761],[76.0228766607814,-66.5499260927761],[75.0228673623704,-66.5499260927761],[74.0229394449244,-66.5499260927761],[73.0227673845833,-66.5499260927761],[72.0228394671372,-66.5499260927761],[71.0227487877612,-66.5499260927761],[70.0228208703151,-66.5499260927761],[69.0228115719042,-66.5499260927761],[68.0228836544581,-66.5499260927761],[67.022711594117,-66.5499260927761],[66.0227022957059,-66.5499260927761],[65.0229371401901,-66.5499260927761],[64.0227650798489,-66.5499260927761],[63.0228371624029,-66.5499260927761],[62.0228278639918,-66.5499260927761],[61.0228185655808,-66.5499260927761],[60.0227278862047,-66.5499260927761],[59.0228813497238,-66.5499260927761],[58.0227906703476,-66.5499260927761],[57.0228627529017,-66.5499260927761],[56.0228534544906,-66.5499260927761],[55.0228441560796,-66.5499260927761],[54.0229162386335,-66.5499260927761],[53.0228255592575,-66.5499260927761],[52.0228976418115,-66.5499260927761],[51.0227255814704,-66.5499260927761],[50.0227976640243,-66.5499260927761],[49.0227883656133,-66.5499260927761],[48.0228604481673,-66.5499260927761],[47.0227697687912,-66.5499260927761],[46.0228418513452,-66.5499260927761],[45.0229139338992,-66.5499260927761],[44.022741873558,-66.5499260927761],[43.0229767180422,-66.5499260927761],[42.022804657701,-66.5499260927761],[41.0228767402551,-66.5499260927761],[40.0227860608789,-66.5499260927761],[39.0227767624679,-66.5499260927761],[38.0228488450219,-66.5499260927761],[37.0229209275759,-66.5499260927761],[36.0227488672348,-66.5499260927761],[35.0229023307539,-66.5499260927761],[34.0228930323427,-66.5499260927761],[33.0228023529667,-66.5499260927761],[32.0228744355206,-66.5499260927761],[31.0228651371097,-66.5499260927761],[30.0229372196636,-66.5499260927761],[29.0227651593225,-66.5499260927761],[28.0228372418765,-66.5499260927761],[27.0227465625004,-66.5499260927761],[26.0228186450544,-66.5499260927761],[25.0228907276084,-66.5499260927761],[24.0228814291973,-66.5499260927761],[23.0229535117513,-66.5499260927761],[22.0227814514103,-66.5499260927761],[21.0229349149292,-66.5499260927761],[20.0227628545882,-66.5499260927761],[19.0228349371422,-66.5499260927761],[18.0228256387311,-66.5499260927761],[17.0228977212851,-66.5499260927761],[16.022807041909,-66.5499260927761],[15.022879124463,-66.5499260927761],[14.022951207017,-66.5499260927761],[13.0227791466758,-66.5499260927761],[12.0228512292299,-66.5499260927761],[11.0228419308188,-66.5499260927761],[10.0228326324077,-66.5499260927761],[9.02282333399674,-66.5499260927761],[8.02289541655074,-66.5499260927761],[7.02280473717465,-66.5499260927761],[6.02279543876355,-66.5499260927761],[5.02278614035257,-66.5499260927761],[4.02285822290656,-66.5499260927761],[3.02293030546056,-66.5499260927761],[2.02283962608448,-66.5499260927761],[1.02291170863847,-66.5499260927761],[0.0228210292623885,-66.5499260927761],[-0.977351031078768,-66.5499260927761],[-1.97736032948984,-66.5499260927761],[-2.97728824693587,-66.5499260927761],[-3.97729754534686,-66.5499260927761],[-4.97730684375793,-66.5499260927761],[-5.97731614216894,-66.5499260927761],[-6.97724405961495,-66.5499260927761],[-7.97725335802605,-66.5499260927761],[-8.97730334691957,-66.5499260927761],[-9.9772719548481,-66.5499260927761],[-10.9772812532591,-66.5499260927761],[-11.9773312421527,-66.5499260927761],[-12.9772998500812,-66.5499260927761],[-13.9773091484923,-66.5499260927761],[-14.9773591373858,-66.5499260927761],[-15.9772463643493,-66.5499260927761],[-16.9772556627604,-66.5499260927761],[-17.9772649611714,-66.5499260927761],[-18.9772742595825,-66.5499260927761],[-19.977242867511,-66.5499260927761],[-20.9772928564045,-66.5499260927761],[-21.9773021548156,-66.5499260927761],[-22.9773114532266,-66.5499260927761],[-23.9772800611552,-66.5499260927761],[-24.9772079786012,-66.5499260927761],[-25.9772986579773,-66.5499260927761],[-26.9772265754233,-66.5499260927761],[-27.9772765643168,-66.5499260927761],[-28.9772858627279,-66.5499260927761],[-29.9772544706564,-66.5499260927761],[-30.9772637690674,-66.5499260927761],[-31.9772730674785,-66.5499260927761],[-32.9772823658895,-66.5499260927761],[-33.9773323547831,-66.5499260927761],[-34.9773009627116,-66.5499260927761],[-35.9771881896751,-66.5499260927761],[-36.9772788690512,-66.5499260927761],[-37.9772474769797,-66.5499260927761],[-38.9772567753908,-66.5499260927761],[-39.9772660738018,-66.5499260927761],[-40.9772753722129,-66.5499260927761],[-41.9772439801413,-66.5499260927761],[-42.9772532785524,-66.5499260927761],[-43.9772625769634,-66.5499260927761],[-44.977312565857,-66.5499260927761],[-45.9771997928205,-66.5499260927761],[-46.9772904721966,-66.5499260927761],[-47.9772183896426,-66.5499260927761],[-48.9772276880537,-66.5499260927761],[-49.9772369864647,-66.5499260927761],[-50.9772462848758,-66.5499260927761],[-51.9772555832868,-66.5499260927761],[-52.9772648816978,-66.5499260927761],[-53.9772741801089,-66.5499260927761],[-54.9772834785199,-66.5499260927761],[-55.9772927769309,-66.5499260927761],[-56.9772206943769,-66.5499260927761],[-57.977311373753,-66.5499260927761],[-58.977239291199,-66.5499260927761],[-59.9772485896101,-66.5499260927761],[-60.9772578880211,-66.5499260927761],[-61.9772671864322,-66.5499260927761],[-62.9772764848432,-66.5499260927761],[-63.9772450927717,-66.5499260927761],[-64.9772543911828,-66.5499260927761],[-65.9772229991113,-66.5499260927761],[-66.9773136784873,-66.5499260927761],[-67.9772009054509,-66.5499260927761],[-68.9773322753095,-66.5499260927761],[-69.977219502273,-66.5499260927761],[-70.977228800684,-66.5499260927761],[-71.9772787895775,-66.5499260927761],[-72.9772880879886,-66.5499260927761],[-73.9772566959172,-66.5499260927761],[-74.9772659943281,-66.5499260927761],[-75.9772752927393,-66.5499260927761],[-76.9772032101853,-66.5499260927761],[-77.9772938895613,-66.5499260927761],[-78.9772218070074,-66.5499260927761],[-79.9773124863834,-66.5499260927761],[-80.9771997133469,-66.5499260927761],[-81.9772497022404,-66.5499260927761],[-82.9772590006515,-66.5499260927761],[-83.9772276085801,-66.5499260927761],[-84.9772369069911,-66.5499260927761],[-85.9772868958846,-66.5499260927761],[-86.9772555038131,-66.5499260927761],[-87.9771834212592,-66.5499260927761],[-88.9772741006352,-66.5499260927761],[-89.9772020180812,-66.5499260927761],[-90.9772113164923,-66.5499260927761],[-91.9772206149033,-66.5499260927761],[-92.9772299133144,-66.5499260927761],[-93.9772392117254,-66.5499260927761],[-94.977289200619,-66.5499260927761],[-95.9772578085475,-66.5499260927761],[-96.9772671069586,-66.5499260927761],[-97.9772764053696,-66.5499260927761],[-98.9772043228157,-66.5499260927761],[-99.9772950021917,-66.5499260927761],[-100.977222919638,-66.5499260927761],[-101.977232218049,-66.5499260927761],[-102.97724151646,-66.5499260927761],[-103.977250814871,-66.5499260927761],[-104.977219422799,-66.5499260927761],[-105.977269411693,-66.5499260927761],[-106.977238019621,-66.5499260927761],[-107.977165937067,-66.5499260927761],[-108.977256616444,-66.5499260927761],[-109.977225224372,-66.5499260927761],[-110.977275213266,-66.5499260927761],[-111.977203130712,-66.5499260927761],[-112.977253119605,-66.5499260927761],[-113.977221727534,-66.5499260927761],[-114.977231025945,-66.5499260927761],[-115.977240324356,-66.5499260927761],[-116.977290313249,-66.5499260927761],[-117.977218230695,-66.5499260927761],[-118.977146148141,-66.5499260927761],[-119.977277518,-66.5499260927761],[-120.977205435446,-66.5499260927761],[-121.977214733857,-66.5499260927761],[-122.977224032268,-66.5499260927761],[-123.977192640197,-66.5499260927761],[-124.977201938608,-66.5499260927761],[-125.977211237019,-66.5499260927761],[-126.97722053543,-66.5499260927761],[-127.977270524323,-66.5499260927761],[-128.977239132252,-66.5499260927761],[-129.977167049698,-66.5499260927761],[-130.977257729074,-66.5499260927761],[-131.97718564652,-66.5499260927761],[-132.977194944931,-66.5499260927761],[-133.977204243342,-66.5499260927761],[-134.977213541753,-66.5499260927761],[-135.977222840164,-66.5499260927761],[-136.977232138575,-66.5499260927761],[-137.977241436986,-66.5499260927761],[-138.97729142588,-66.5499260927761],[-139.977260033808,-66.5499260927761],[-140.977187951254,-66.5499260927761],[-141.97727863063,-66.5499260927761],[-142.977165857594,-66.5499260927761],[-143.977215846487,-66.5499260927761],[-144.977184454416,-66.5499260927761],[-145.977193752827,-66.5499260927761],[-146.977203051238,-66.5499260927761],[-147.977212349649,-66.5499260927761],[-148.97722164806,-66.5499260927761],[-149.977190255989,-66.5499260927761],[-150.977240244882,-66.5499260927761],[-151.977168162328,-66.5499260927761],[-152.977258841704,-66.5499260927761],[-153.97718675915,-66.5499260927761],[-154.977196057561,-66.5499260927761],[-155.977205355972,-66.5499260927761],[-156.977214654383,-66.5499260927761],[-157.977183262312,-66.5499260927761],[-158.977233251206,-66.5499260927761],[-159.977242549617,-66.5499260927761],[-160.977170467063,-66.5499260927761],[-161.977220455956,-66.5499260927761],[-162.977189063885,-66.5499260927761],[-163.977157671813,-66.5499260927761],[-164.977166970224,-66.5499260927761],[-165.977216959118,-66.5499260927761],[-166.977185567046,-66.5499260927761],[-167.977194865457,-66.5499260927761],[-168.977244854351,-66.5499260927761],[-169.977132081314,-66.5499260927761],[-170.97722276069,-66.5499260927761],[-171.977150678137,-66.5499260927761],[-172.977241357513,-66.5499260927761],[-173.977169274959,-66.5499260927761],[-174.97717857337,-66.5499260927761],[-175.977187871781,-66.5499260927761],[-176.977197170192,-66.5499260927761],[-177.977206468603,-66.5499260927761],[-178.977215767014,-66.5499260927761],[-179.999971045154,-66.5499260927761],[-179.999971184575,-66.5499260927761]]},"properties":{"FID":5,"scalerank":2,"name":"Antarctic Circle","name_long":"Antarctic Circle","abbrev":"Antarctic Cir.","note":"Southern polar circle, 66.5° S.","featurecla":"Circle of latitude","min_zoom":4.1,"wikidataid":"Q182657","name_ar":"الدائرة القطبية الجنوبية","name_bn":"কুমেরুবৃত্ত","name_de":"südlicher Polarkreis","name_en":"Antarctic Circle","name_es":"Círculo polar antártico","name_fr":"Cercle Antarctique","name_el":"Ανταρκτικός κύκλος","name_hi":"अंटार्कटिक रेखा","name_hu":"déli sarkkör","name_id":"Lingkar Antarktika","name_it":"Circolo polare antartico","name_ja":"南極圏","name_ko":"남극권","name_nl":"Zuidpoolcirkel","name_pl":"koło podbiegunowe południowe","name_pt":"Círculo Polar Antártico","name_ru":"Южный полярный круг","name_sv":"Södra polcirkeln","name_tr":"Güney Kutup Dairesi","name_vi":"Vòng Nam Cực","name_zh":"南極圈","wdid_score":5,"ne_id":1159100215}},{"type":"Feature","id":6,"geometry":{"type":"MultiLineString","coordinates":[[[-179.999971045153,-2.50943351283631],[-179.522435878697,-2.50943351260819],[-178.980796782997,-2.50943351234945],[-178.506862574244,-2.50943351212305],[-178.032928365507,-2.50943351189664],[-177.525141713288,-2.50943351165408],[-177.017355061054,-2.50943351141151],[-176.509568408851,-2.50943351116893],[-175.900224426189,-2.50943351087785],[-175.426290217452,-2.50943351065146],[-174.986208452163,-2.50943351044121],[-174.512274243458,-2.50943351021483],[-173.970635147742,-2.50943350995607],[-173.462848495669,-2.5094335097135],[-172.95506184337,-2.50943350947094],[-172.514980078049,-2.50943350926071],[-172.007193425831,-2.50943350901813],[-171.46555433022,-2.50943350898214],[-171.025472564954,-2.50943350911282],[-170.517685912745,-2.5094335092636],[-170.009899260517,-2.5094335094144],[-169.535965051759,-2.50943350955513],[-168.960473512608,-2.50943350972602],[-168.45268686036,-2.50943350987681],[-167.944900208171,-2.50943351002762],[-167.356770598432,-2.50943351020225],[-166.733442797169,-2.50943351038736],[-166.226988958647,-2.50943351053776],[-165.681577132581,-2.50943351069971],[-165.12642580958,-2.50943351086457],[-164.639450964847,-2.50943351100918],[-164.07456014498,-2.50943351117694],[-163.509669325067,-2.50943351134467],[-162.964257498973,-2.50943351150664],[-162.43832466669,-2.50943351166281],[-161.892912840578,-2.50943351182479],[-161.386459002079,-2.50943351197517],[-160.880005163551,-2.50943351212558],[-160.373551325034,-2.50943351227597],[-159.906055474084,-2.50943351241478],[-159.496996604519,-2.50943351253625],[-159.048979747358,-2.50943351266929],[-158.486571354638,-2.50943351283631],[-158.486571354637,-1.93225193097141],[-158.486571354637,-1.44527708624393],[-158.486571354637,-1.01673922288376],[-158.486571354637,-0.627159347101769],[-158.486571354637,-0.228073404634912],[-158.943274706069,0.138068983191903],[-159.330178697928,0.44825271842221],[-159.631626533551,0.689925633661366],[-159.990011400008,0.977245379300369],[-160.289107946839,1.21703324926929],[-160.639768712542,1.49816052733548],[-160.639768712612,1.98302582063285],[-160.639768712688,2.50895865294696],[-160.639768712759,2.99593349768007],[-160.639768712835,3.52186632997729],[-160.639768712913,4.06727815607488],[-160.639768712978,4.51529501322698],[-160.639768713039,4.93731542808274],[-160.003450443038,4.93731542808274],[-159.477517610732,4.93731542808274],[-158.990542766004,4.93731542808274],[-158.503567921277,4.93731542808274],[-157.99711408276,4.93731542808274],[-157.490660244244,4.93731542808274],[-156.984206405727,4.93731542808274],[-156.477752567211,4.93731542808274],[-156.019996213167,4.93731542808274],[-155.528633931167,4.93731542808274],[-155.343582440327,4.44035871549264],[-155.156611301031,3.93824677728542],[-154.948157800812,3.3784438504008],[-154.742076334493,2.82501103252397],[-154.562221296895,2.34200942134021],[-154.40073059363,1.90832532269254],[-154.228125713559,1.44479404613938],[-154.04915072448,0.964155809696345],[-153.890032055115,0.536841820056466],[-153.724263725748,0.0687288740796728],[-153.551871368755,-0.371290409830006],[-153.364900229459,-0.873402348037197],[-153.173185022365,-1.38825450426002],[-152.998208108395,-1.85815588982097],[-152.823977187114,-2.3260539082484],[-152.645748190726,-2.80468877755789],[-152.445290840724,-3.34301800267839],[-152.271059919444,-3.81091602110582],[-152.119937400295,-4.21675630898154],[-151.952822580713,-4.66554400038554],[-151.806444129363,-5.05864407024561],[-151.652069527796,-5.47321784186987],[-151.474720579926,-5.94948933643864],[-151.305233726444,-6.40464713685045],[-151.131002805164,-6.87254515527786],[-150.975748155077,-7.28948230164284],[-150.815137500332,-7.72080302554979],[-150.601939932315,-8.29334617045005],[-150.384744289189,-8.87662616623239],[-150.174664747761,-9.44079583499127],[-150.000233160371,-9.90923274327129],[-150.000168012189,-10.5002562854755],[-150.000199261318,-11.0001778848487],[-150.000233161202,-11.6453592712355],[-150.624314933586,-11.6453592712355],[-151.150247765892,-11.6453592712355],[-151.598264623041,-11.6453592712355],[-152.104718461558,-11.6453592712355],[-152.611172300074,-11.6453592712355],[-153.117626138591,-11.6453592712355],[-153.643558970897,-11.6453592712355],[-154.091575828046,-11.6453592712355],[-154.566158655566,-11.6453592712355],[-154.697371913444,-11.1425203567138],[-154.816761103696,-10.684993946633],[-154.921873593446,-10.2821790855186],[-155.037537351297,-9.8389293759399],[-155.156718198515,-9.3822013835398],[-155.266589588432,-8.9611493394366],[-155.394254768218,-8.47190746354562],[-155.509918526069,-8.02865775396694],[-155.622065194553,-7.59888632720968],[-155.74000423097,-7.14691723497695],[-155.86539413219,-6.66639474174003],[-155.976298989874,-6.24138221515014],[-156.080438255175,-5.84229697048704],[-156.538711660084,-5.8422969705436],[-157.063321676592,-5.84229697060838],[-157.71283883988,-5.84229697068856],[-158.312393144467,-5.84229697076256],[-158.911947449046,-5.8422969708366],[-159.561464612348,-5.84229697091675],[-160.210981775648,-5.84229697099695],[-160.860498938942,-5.84229697107712],[-161.485034672884,-5.84229697115422],[-162.13455183618,-5.84229697123441],[-162.734106140743,-5.84229697130841],[-163.308679015982,-5.84229697137934],[-163.933214749921,-5.84229697145643],[-164.632694771927,-5.84229697154279],[-165.332174793945,-5.84229697162913],[-165.931729098517,-5.84229697170316],[-166.556264832456,-5.84229697178024],[-167.080874848959,-5.842296971845],[-167.68042915354,-5.84229697191903],[-168.279983458128,-5.84229697199302],[-168.879537762715,-5.84229697206702],[-169.396078486595,-5.8422969721308],[-169.625077852912,-6.35660891369496],[-169.845898952455,-6.85255320503231],[-170.070785616184,-7.35762838718048],[-170.32250417148,-7.92296557996126],[-170.549491238028,-8.43275807757522],[-170.763062358793,-8.91241956987286],[-170.992787894733,-9.42836242297527],[-171.100196296818,-10.0096222995891],[-171.181510712923,-10.4496698801748],[-171.293785588338,-11.0572655520591],[-171.24930411675,-11.5029487351915],[-171.198512605619,-12.0118555125217],[-171.151807419098,-12.479819261345],[-171.103742652448,-12.9614053562369],[-171.057037465927,-13.4293691050602],[-171.003287191259,-13.9679212853924],[-171.236700825112,-14.4309837588049],[-171.619750364963,-14.603559135698],[-172.017542495847,-14.7827764947347],[-172.499982688035,-15.000130359793],[-172.499982688036,-15.5312225376438],[-172.499982688036,-16.0625588583896],[-172.499982688036,-16.3943826973211],[-172.500008347626,-16.8503283192398],[-172.499982688036,-17.2855650425788],[-172.499982688036,-17.6563236777323],[-172.499982688036,-18.1874972365481],[-172.499982688036,-18.718833557294],[-172.499982688036,-19.2499257351448],[-172.499982688036,-19.7812620558906],[-172.499982688036,-20.3125983766366],[-172.499982688036,-20.6637678862302],[-172.499982688036,-21.1197216442691],[-172.499982688036,-21.5964005731278],[-172.500023378518,-22.0006023534955],[-172.499982688036,-22.43745537383],[-172.499982688036,-22.9688730755409],[-172.499982688036,-23.4999652533918],[-172.499982688036,-24.0000512835624],[-172.499982688036,-24.4668367316905],[-172.499982688036,-24.9999792010083],[-172.499982688036,-25.440919760228],[-172.499982688036,-26.0001512613494],[-172.499982688036,-26.3735524471256],[-172.499982688036,-27.0000791787955],[-172.499982688036,-27.389085817303],[-172.499982688036,-27.9999257152763],[-172.499982688036,-28.4253443583004],[-172.499982688036,-28.8191226038794],[-172.499982688036,-29.2363467171285],[-172.499982688036,-29.8346559740568],[-172.499982688036,-30.3527852445555],[-172.499982688036,-30.9375344103239],[-172.499982688036,-31.316505687683],[-172.499982688036,-31.8750431275842],[-172.499982688036,-32.2905887162205],[-172.499982688036,-32.8124704638796],[-172.499982688036,-33.285396915578],[-172.499982688036,-33.7500605621049],[-172.499982688036,-34.2180296024756],[-172.499982688036,-34.6875692793653],[-172.499982688036,-35.1921126310131],[-172.499982688036,-35.6249152346956],[-172.499982688036,-36.2076460011905],[-172.499982688036,-36.562505332921],[-172.499982688036,-37.181729029728],[-172.499982688036,-37.6894957148168],[-172.499982688036,-38.1661746436755],[-172.499982688036,-38.6221284017143],[-172.499982688036,-39.140257672213],[-172.499982688036,-39.6791121135316],[-172.499982688036,-40.1143407007505],[-172.499982688036,-40.6324699712492],[-172.499982688036,-41.2499675382578],[-172.499982688036,-41.6272781706067],[-172.499982688036,-42.187476255518],[-172.499982688036,-42.6013611991442],[-172.499982688036,-43.1250663537435],[-172.499982688036,-43.5754442276817],[-172.499982688036,-44.0624123090737],[-172.499982688036,-44.5471700913511],[-172.499982688036,-45.0000024072991],[-172.866897000701,-45.2938141635303],[-173.237851318283,-45.5908890292032],[-173.571402893548,-45.8579407584895],[-173.906245763926,-46.125908058627],[-174.374959432074,-46.5013184503564],[-174.70818747389,-46.7681091332579],[-175.1625236452,-47.1319063176931],[-175.58111870842,-47.467130122764],[-176.057626494425,-47.8486540131925],[-176.375865136149,-48.1034325314664],[-176.718731225225,-48.3779635041778],[-177.046318623364,-48.6402836847869],[-177.453030574946,-48.9659731414677],[-177.824020056105,-49.2629969120171],[-178.229071115964,-49.5872282275632],[-178.593748659746,-49.87919816627],[-178.936948520251,-50.1540798324755],[-179.318148001907,-50.4593346567063],[-179.694214425794,-50.7604489530549],[-179.999971045154,-51.005266579528]],[[179.999673548913,59.5018644672705],[179.613927774624,59.2693997406338],[179.413567838695,59.1478572693467],[178.937977479002,58.8582224147694],[178.694648393532,58.7095393916415],[178.501449982528,58.590641801718],[178.225568511042,58.4207183467146],[178.030579718806,58.2997862326652],[177.542944976287,57.9963166140313],[177.269342171823,57.8252945159996],[177.037569183389,57.6794191361656],[176.782358477024,57.5186917302117],[176.501431385705,57.3404267262917],[176.056765792727,57.05718027747],[175.792114894417,56.8879485606695],[175.590778386908,56.7583086833608],[175.28885500661,56.5637674864328],[175.076043783031,56.4258674411726],[174.780468118005,56.2336862922307],[174.267116990533,55.8977863590281],[174.008651045566,55.7276187611296],[173.748964386124,55.5559863058604],[173.488057012206,55.3828889932205],[173.226173066707,55.2083268232097],[172.962987025768,55.0322997958282],[172.698661651318,54.8548486015586],[172.433359705288,54.6758918594358],[172.166999806712,54.4954702599422],[171.899663336556,54.3136244935605],[171.631106151924,54.1303545602904],[171.361572395712,53.9455790791672],[171.091062067919,53.7594201216382],[170.819737930476,53.5717149257736],[170.547355840487,53.3825448725381],[170.273997178918,53.1919506524145],[169.999661945768,52.9999322654027],[170.487378069252,52.7656771575352],[170.799880975006,52.6151223722113],[171.339436773221,52.3536860220204],[171.734459977525,52.1612607301834],[172.062750790496,52.000736776642],[172.684013077611,51.6962905864277],[172.96705607402,51.5571698266918],[173.35442946761,51.3658431778829],[173.681255423211,51.2044240337262],[174.45356078144,50.8209162359753],[174.859733177954,50.6183183235084],[175.278438243085,50.4088437194954],[175.708943548146,50.192899328762],[176.150435283488,49.9706072227552],[176.602343782355,49.7422929253356],[177.064099377992,49.5082819603632],[177.534725498818,49.2688184707331],[178.013815240008,49.0242279803055],[178.312827026461,48.8709469382702],[178.752614050285,48.6449843095202],[179.192032788442,48.4184296220404],[179.560440686063,48.2194419218579],[179.999988540844,48.0000060169263]],[[179.999988131736,-1.99995991809844],[179.999984160348,-2.50004751895516]],[[-179.999988540844,74.9999928754376],[-179.609381849398,74.7519008165442],[-179.126020861589,74.5146586834999],[-178.729492109432,74.2915527678429],[-178.324743879806,74.0612039462972],[-177.997633090828,73.8731732265724],[-177.648590131771,73.6710635998956],[-177.287340027959,73.4602869004422],[-176.698914960238,73.1129936321341],[-176.298805445619,72.8743439521546],[-175.917617005371,72.6449717021893],[-175.443491503049,72.3568423954654],[-175.001755624812,72.085436877057],[-174.594850799612,71.8327082901254],[-174.132484846737,71.542422387828],[-173.660353178058,71.2420859363479],[-173.070300491036,70.8611823294783],[-172.727157651945,70.6361639611429],[-172.25929848393,70.3253293651728],[-171.788753744069,70.0076587681391],[-171.473728028399,69.7919178298183],[-171.136729452169,69.5584358411186],[-170.889656842308,69.3839143615905],[-170.440433915287,69.0628664545078],[-170.130413128967,68.8372784194169],[-169.698483657018,68.5162305123345],[-169.389892545674,68.2481131473801],[-168.999999989756,68.000000147149],[-168.999999989756,67.5833334800944],[-168.999999989756,67.1666668130397],[-168.999999989756,66.7500001459849],[-168.999999989756,66.3333334789303],[-168.999999989756,65.9166668118755],[-168.999999989756,65.5000001448207],[-169.417175409414,65.308653958994],[-169.834350829072,65.1173077731671],[-170.251711457359,64.8820414470274],[-170.633062659537,64.6929120842745],[-171.060272035514,64.4772932174012],[-171.532607156606,64.2360800370226],[-171.826148297505,64.0843045372232],[-172.331320637991,63.821362639179],[-172.607324180924,63.6768707357505],[-173.178537174539,63.3742556172495],[-173.483390269579,63.2108833299317],[-173.785964697597,63.0484876141945],[-174.428426726105,62.6997294885158],[-174.760257611056,62.5173140553788],[-175.104824617035,62.3278184782831],[-175.466563006637,62.1266040422217],[-175.762179362145,61.9620924213936],[-176.171810449674,61.7319063617781],[-176.380267791624,61.6141074148828],[-176.745017276933,61.4067894064434],[-177.12087526397,61.1920657301855],[-177.382799899951,61.0418364687216],[-177.592722099271,60.9205381403295],[-177.952710798126,60.7119180364497],[-178.204869718302,60.5652288469652],[-178.627033474447,60.3179527846914],[-178.808879240829,60.210651982286],[-179.056318065033,60.0647766024518],[-179.492642109095,59.8056189192822],[-179.999971045154,59.5018644672705]],[[-179.998741902923,-51.0037742912305],[-179.996687086278,-51.4955163969306],[-179.999988540844,-51.9982549302028]]]},"properties":{"FID":6,"scalerank":0,"name":"International Date Line","name_long":"International Date Line","abbrev":"Date Line","note":"Any given day starts here and progresses west, with yesterday nipping at its heals","featurecla":"Date line","min_zoom":4,"wikidataid":"Q131389","name_ar":"خط التاريخ الدولي","name_bn":"আন্তর্জাতিক তারিখ রেখা","name_de":"Datumsgrenze","name_en":"International Date Line","name_es":"Línea internacional de cambio de fecha","name_fr":"ligne de changement de date","name_el":"Διεθνής Γραμμή Ημερομηνίας","name_hi":"अन्तर्राष्ट्रीय तिथि रेखा","name_hu":"Nemzetközi dátumválasztó vonal","name_id":"batas penanggalan internasional","name_it":"Linea internazionale del cambio di data","name_ja":"国際日付変更線","name_ko":"날짜 변경선","name_nl":"Internationale datumgrens","name_pl":"Międzynarodowa linia zmiany daty","name_pt":"Linha Internacional de Data","name_ru":"Линия перемены даты","name_sv":"Datumgränsen","name_tr":"Tarih değiştirme çizgisi","name_vi":"Đường đổi ngày quốc tế","name_zh":"国际日期变更线","wdid_score":5,"ne_id":1159100219}}]}